<?xml version="1.0" encoding="UTF-8"?>
<kml xmlns="http://www.opengis.net/kml/2.2">
  <Document>
    <name>NATIONAL HIGHWAY</name>
    <description/>
    <Style id="icon-1899-0288D1-nodesc-normal">
      <IconStyle>
        <color>ffd18802</color>
        <scale>1</scale>
        <Icon>
          <href>https://www.gstatic.com/mapspro/images/stock/503-wht-blank_maps.png</href>
        </Icon>
        <hotSpot x="32" xunits="pixels" y="64" yunits="insetPixels"/>
      </IconStyle>
      <LabelStyle>
        <scale>0</scale>
      </LabelStyle>
      <BalloonStyle>
        <text><![CDATA[<h3>$[name]</h3>]]></text>
      </BalloonStyle>
    </Style>
    <Style id="icon-1899-0288D1-nodesc-highlight">
      <IconStyle>
        <color>ffd18802</color>
        <scale>1</scale>
        <Icon>
          <href>https://www.gstatic.com/mapspro/images/stock/503-wht-blank_maps.png</href>
        </Icon>
        <hotSpot x="32" xunits="pixels" y="64" yunits="insetPixels"/>
      </IconStyle>
      <LabelStyle>
        <scale>1</scale>
      </LabelStyle>
      <BalloonStyle>
        <text><![CDATA[<h3>$[name]</h3>]]></text>
      </BalloonStyle>
    </Style>
    <StyleMap id="icon-1899-0288D1-nodesc">
      <Pair>
        <key>normal</key>
        <styleUrl>#icon-1899-0288D1-nodesc-normal</styleUrl>
      </Pair>
      <Pair>
        <key>highlight</key>
        <styleUrl>#icon-1899-0288D1-nodesc-highlight</styleUrl>
      </Pair>
    </StyleMap>
    <Style id="line-000000-1200-normal">
      <LineStyle>
        <color>ff000000</color>
        <width>1.2</width>
      </LineStyle>
    </Style>
    <Style id="line-000000-1200-highlight">
      <LineStyle>
        <color>ff000000</color>
        <width>1.8</width>
      </LineStyle>
    </Style>
    <StyleMap id="line-000000-1200">
      <Pair>
        <key>normal</key>
        <styleUrl>#line-000000-1200-normal</styleUrl>
      </Pair>
      <Pair>
        <key>highlight</key>
        <styleUrl>#line-000000-1200-highlight</styleUrl>
      </Pair>
    </StyleMap>
    <Style id="line-7CB342-3713-normal">
      <LineStyle>
        <color>ff42b37c</color>
        <width>3.713</width>
      </LineStyle>
    </Style>
    <Style id="line-7CB342-3713-highlight">
      <LineStyle>
        <color>ff42b37c</color>
        <width>5.5695</width>
      </LineStyle>
    </Style>
    <StyleMap id="line-7CB342-3713">
      <Pair>
        <key>normal</key>
        <styleUrl>#line-7CB342-3713-normal</styleUrl>
      </Pair>
      <Pair>
        <key>highlight</key>
        <styleUrl>#line-7CB342-3713-highlight</styleUrl>
      </Pair>
    </StyleMap>
    <Style id="line-A52714-1775-normal">
      <LineStyle>
        <color>ff1427a5</color>
        <width>1.775</width>
      </LineStyle>
    </Style>
    <Style id="line-A52714-1775-highlight">
      <LineStyle>
        <color>ff1427a5</color>
        <width>2.6625</width>
      </LineStyle>
    </Style>
    <StyleMap id="line-A52714-1775">
      <Pair>
        <key>normal</key>
        <styleUrl>#line-A52714-1775-normal</styleUrl>
      </Pair>
      <Pair>
        <key>highlight</key>
        <styleUrl>#line-A52714-1775-highlight</styleUrl>
      </Pair>
    </StyleMap>
    <Style id="line-A52714-1775-nodesc-normal">
      <LineStyle>
        <color>ff1427a5</color>
        <width>1.775</width>
      </LineStyle>
      <BalloonStyle>
        <text><![CDATA[<h3>$[name]</h3>]]></text>
      </BalloonStyle>
    </Style>
    <Style id="line-A52714-1775-nodesc-highlight">
      <LineStyle>
        <color>ff1427a5</color>
        <width>2.6625</width>
      </LineStyle>
      <BalloonStyle>
        <text><![CDATA[<h3>$[name]</h3>]]></text>
      </BalloonStyle>
    </Style>
    <StyleMap id="line-A52714-1775-nodesc">
      <Pair>
        <key>normal</key>
        <styleUrl>#line-A52714-1775-nodesc-normal</styleUrl>
      </Pair>
      <Pair>
        <key>highlight</key>
        <styleUrl>#line-A52714-1775-nodesc-highlight</styleUrl>
      </Pair>
    </StyleMap>
    <Style id="line-E65100-2744-normal">
      <LineStyle>
        <color>ff0051e6</color>
        <width>2.744</width>
      </LineStyle>
    </Style>
    <Style id="line-E65100-2744-highlight">
      <LineStyle>
        <color>ff0051e6</color>
        <width>4.116</width>
      </LineStyle>
    </Style>
    <StyleMap id="line-E65100-2744">
      <Pair>
        <key>normal</key>
        <styleUrl>#line-E65100-2744-normal</styleUrl>
      </Pair>
      <Pair>
        <key>highlight</key>
        <styleUrl>#line-E65100-2744-highlight</styleUrl>
      </Pair>
    </StyleMap>
    <Style id="line-FFD600-3325-normal">
      <LineStyle>
        <color>ff00d6ff</color>
        <width>3.325</width>
      </LineStyle>
    </Style>
    <Style id="line-FFD600-3325-highlight">
      <LineStyle>
        <color>ff00d6ff</color>
        <width>4.9875</width>
      </LineStyle>
    </Style>
    <StyleMap id="line-FFD600-3325">
      <Pair>
        <key>normal</key>
        <styleUrl>#line-FFD600-3325-normal</styleUrl>
      </Pair>
      <Pair>
        <key>highlight</key>
        <styleUrl>#line-FFD600-3325-highlight</styleUrl>
      </Pair>
    </StyleMap>
    <Folder>
      <name>NH</name>
      <Placemark>
        <name>NH 15</name>
        <description>Baihata - Wakro</description>
        <styleUrl>#line-FFD600-3325</styleUrl>
        <LineString>
          <tessellate>1</tessellate>
          <coordinates>
            91.711376,26.3621001,0
            91.8487051,26.3621001,0
            91.9393423,26.4113087,0
            92.046459,26.4506604,0
            92.1288565,26.5194937,0
            92.2606924,26.5907417,0
            92.348583,26.7061186,0
            92.7331045,26.6717632,0
            92.8374746,26.6472173,0
            92.8731802,26.7257456,0
            93.2577017,26.7478219,0
            93.2675351,26.7647591,0
            93.2551755,26.8046023,0
            93.2723416,26.829727,0
            93.2853265,26.8375103,0
            93.2943388,26.8336043,0
            93.2959695,26.8304642,0
            93.386883,26.8464279,0
            93.4363215,26.8746057,0
            93.5242121,26.8292727,0
            93.6107295,26.8831802,0
            93.7727778,26.8770557,0
            93.8167231,26.9309404,0
            93.9334529,27.0202834,0
            93.9540522,27.0765453,0
            93.9238398,27.1291124,0
            93.9993708,27.1669942,0
            94.0913813,27.2292881,0
            94.1627925,27.3269337,0
            94.2149775,27.443995,0
            94.3715327,27.4220555,0
            94.5225947,27.4269313,0
            94.6049922,27.5244027,0
            94.6406977,27.5682367,0
            94.7285884,27.5244027,0
            94.698376,27.458619,0
            94.816479,27.35865,0
            94.8631709,27.3903573,0
            94.9812739,27.4659302,0
            95.131306,27.4848154,0
            95.3177302,27.4994339,0
            95.3822749,27.5201402,0
            95.4001277,27.4896884,0
            95.4756587,27.500652,0
            95.5662959,27.5457131,0
            95.5923884,27.5548449,0
            95.5930751,27.6120532,0
            95.594976,27.6163374,0
            95.6266476,27.61725,0
            95.6489635,27.6247028,0
            95.6779174,27.6514823,0
            95.7156829,27.6922256,0
            95.7692412,27.6618216,0
            95.8080367,27.6353633,0
            95.8447722,27.6365799,0
            95.8591918,27.6417503,0
            95.9134368,27.7381195,0
            95.9752349,27.7685022,0
            96.0105971,27.8231697,0
            96.1314467,27.815275,0
            96.1458663,27.7903725,0
            96.2443999,27.7821717,0
            96.327484,27.7818679,0
            96.3498425,27.7586563,0
            96.3588118,27.7556182,0
            96.3591122,27.7604412,0
            96.3551211,27.7686437,0
            96.3519883,27.7773392,0
            96.3475912,27.7829898,0
          </coordinates>
        </LineString>
      </Placemark>
      <Placemark>
        <name>NH 2</name>
        <styleUrl>#line-A52714-1775-nodesc</styleUrl>
        <LineString>
          <tessellate>1</tessellate>
          <coordinates>
            94.8678524,27.3892944,0
            94.8616726,27.33807,0
            94.9021846,27.3087882,0
            94.9097378,27.2727855,0
            94.8850185,27.2404341,0
            94.9138576,27.1848655,0
            94.8493129,27.11888,0
            94.8108608,27.1372132,0
            94.7167904,27.1078786,0
            94.6426326,26.9947463,0
            94.578088,26.9910752,0
            94.5602352,26.9494614,0
            94.5190365,26.9445647,0
            94.5107967,26.8710879,0
            94.4901973,26.8527113,0
            94.5808346,26.7497469,0
            94.6385128,26.6957759,0
            94.6460659,26.6086324,0
            94.6790249,26.5773182,0
            94.6855027,26.5609446,0
            94.6727997,26.5419036,0
            94.6784645,26.5354535,0
            94.6754605,26.5288494,0
            94.667564,26.5260848,0
            94.6712548,26.5194034,0
            94.6728856,26.5154866,0
            94.670139,26.5104175,0
            94.6601826,26.5076524,0
            94.6624142,26.4965916,0
            94.6596155,26.4942272,0
            94.6599159,26.4899254,0
            94.5585341,26.3565125,0
            94.5506377,26.3337453,0
            94.5152754,26.3186673,0
            94.5025725,26.299894,0
            94.4732184,26.2806558,0
            94.4385428,26.267726,0
            94.4146819,26.250484,0
            94.4133086,26.2398605,0
            94.4170851,26.2212284,0
            94.4205183,26.1911952,0
            94.4083304,26.1409685,0
            94.4097037,26.1173885,0
            94.4060988,26.1124561,0
            94.3868727,26.1161554,0
            94.3697066,26.0953453,0
            94.3592352,26.1052113,0
            94.3274779,26.1166178,0
            94.2945189,26.1223206,0
            94.2497153,26.1095274,0
            94.257955,26.0917995,0
            94.2632765,26.0808531,0
            94.2540068,26.0481619,0
            94.2567534,26.0338181,0
            94.2542643,26.0065138,0
            94.2346091,25.9839097,0
            94.2320342,25.9738791,0
            94.2150397,25.9632304,0
            94.2146964,25.9529666,0
            94.2180438,25.9292715,0
            94.2162413,25.9169975,0
            94.2055125,25.9000126,0
            94.1997618,25.88928,0
            94.1598505,25.8643364,0
            94.1489501,25.8410097,0
            94.1522974,25.8271815,0
            94.1381354,25.8080974,0
            94.1284365,25.7839868,0
            94.1109271,25.7760261,0
            94.0848345,25.7722388,0
            94.0779681,25.7659779,0
            94.0796847,25.7482756,0
            94.0851778,25.740931,0
            94.0799422,25.7266272,0
            94.0860362,25.7185853,0
            94.0909285,25.7076816,0
            94.0985674,25.6964675,0
            94.0971941,25.6896612,0
            94.1042323,25.6831252,0
            94.1078527,25.6822302,0
          </coordinates>
        </LineString>
      </Placemark>
      <Placemark>
        <name>NH-2</name>
        <description>Dibrugarh Tuipung</description>
        <styleUrl>#line-A52714-1775</styleUrl>
        <LineString>
          <tessellate>1</tessellate>
          <coordinates>
            94.109618,25.6821406,0
            94.1006917,25.6564571,0
            94.1089743,25.6483718,0
            94.1097468,25.6382742,0
            94.1084164,25.6260475,0
            94.1242093,25.5941593,0
            94.1341656,25.5097541,0
            94.1341193,25.4806516,0
            94.0995784,25.4026963,0
            93.8915248,24.9876558,0
            93.8908382,24.8936413,0
            93.9416499,24.8163838,0
            93.7617488,24.6242778,0
            93.7617488,24.4781294,0
            93.6985774,24.3630899,0
            93.6772914,24.333688,0
            93.4609981,24.4049914,0
            93.3573146,24.3436979,0
            93.3339687,24.3587113,0
            93.2735439,24.2880077,0
            93.2920833,24.215386,0
            93.2625575,24.2441893,0
            93.2220454,24.1922135,0
            93.1849666,24.2454414,0
            93.1911464,24.3280571,0
            93.1389613,24.3174202,0
            93.0648036,24.1821917,0
            93.0387111,24.2091236,0
            92.9521938,24.1784333,0
            92.9233546,24.1289374,0
            92.922668,23.8930998,0
            92.9096217,23.8566822,0
            92.8540034,23.8899608,0
            92.8272243,23.8164853,0
            92.8540034,23.7448538,0
            92.8656764,23.7052511,0
            92.8601833,23.2927989,0
            92.9171748,23.2303468,0
            92.9288478,22.9410477,0
            92.8443904,22.8834928,0
            92.7963252,22.8499607,0
            92.8086848,22.8126226,0
            92.8862758,22.5376529,0
            92.8849025,22.4678728,0
            92.9195781,22.4678728,0
            92.9312511,22.4228142,0
            92.9491038,22.4009142,0
            92.9463573,22.4618447,0
            92.96627,22.4570854,0
            92.976913,22.4247184,0
            93.0174251,22.3971052,0
            93.053474,22.3478957,0
            93.0216752,22.3152111,0
          </coordinates>
        </LineString>
      </Placemark>
      <Placemark>
        <name>NH - 27</name>
        <description>Srirampur - Rangpur (Silchar)</description>
        <styleUrl>#line-7CB342-3713</styleUrl>
        <LineString>
          <tessellate>1</tessellate>
          <coordinates>
            89.9006932,26.4356289,0
            89.9212925,26.450999,0
            89.9968235,26.4466956,0
            90.0599949,26.5683591,0
            90.1286595,26.5278189,0
            90.1904576,26.5714297,0
            90.3628056,26.5456338,0
            90.3950779,26.5566899,0
            90.619611,26.4848061,0
            90.7198613,26.473743,0
            90.7995121,26.4897226,0
            90.8805363,26.4780455,0
            90.966367,26.487879,0
            90.9718602,26.4221014,0
            91.0288517,26.4214865,0
            91.0803501,26.4749723,0
            91.1751072,26.5100013,0
            91.2307255,26.5020131,0
            91.311063,26.5259758,0
            91.3625614,26.5210608,0
            91.388654,26.4602201,0
            91.4126866,26.4565317,0
            91.462125,26.4602201,0
            91.549329,26.4442364,0
            91.6241734,26.438703,0
            91.636533,26.3827399,0
            91.690778,26.3439803,0
            91.7367832,26.341519,0
            91.6976445,26.2651907,0
            91.6722386,26.2017508,0
            91.6818516,26.1395092,0
            91.7051976,26.1136168,0
            91.8336003,26.1191656,0
            91.8780908,26.09866,0
            91.887103,26.1058281,0
            91.8969735,26.1197778,0
            91.9302758,26.122475,0
            91.9692429,26.1180823,0
            91.9720754,26.1222438,0
            91.979371,26.1213961,0
            91.98495,26.1190071,0
            92.022973,26.1226292,0
            92.1163567,26.1106837,0
            92.2193536,26.1273299,0
            92.3202905,26.0934185,0
            92.3525628,26.1279464,0
            92.3621758,26.1871134,0
            92.4013146,26.2019005,0
            92.4534997,26.2111414,0
            92.5201043,26.2179177,0
            92.6231011,26.1895781,0
            92.5901421,26.2751919,0
            92.6636132,26.301664,0
            92.7116784,26.3102815,0
            92.7432641,26.2517929,0
            92.7412042,26.1704757,0
            92.8050622,26.1384261,0
            92.8860864,26.1119169,0
            92.9204186,26.0095225,0
            93.0213555,25.8823306,0
            93.1325921,25.7945747,0
            93.1724175,25.769843,0
            93.1085595,25.6454882,0
            93.09208,25.5668489,0
            93.1236657,25.4931164,0
            93.1476983,25.4788603,0
            93.1202325,25.3808818,0
            93.1360253,25.2853071,0
            93.1387719,25.2095386,0
            93.0563744,25.1523705,0
            93.0295953,25.1262631,0
            92.9849633,25.1100986,0
            92.910119,25.1107204,0
            92.8517541,25.1100986,0
            92.8064355,25.0827384,0
            92.7769097,25.0236444,0
            92.7295312,24.9943979,0
            92.7693566,24.9744813,0
            92.7528771,24.9346386,0
            92.8009423,24.9271667,0
            92.8455743,24.9346386,0
            92.8627404,24.8598989,0
            92.833405,24.8387232,0
          </coordinates>
        </LineString>
      </Placemark>
      <Placemark>
        <name>NH - 17</name>
        <description>Darjeeling to Guwahati  / Connecting 27 to 27</description>
        <styleUrl>#line-E65100-2744</styleUrl>
        <LineString>
          <tessellate>1</tessellate>
          <coordinates>
            89.3662896,26.4932621,0
            89.3429436,26.4840437,0
            89.4074883,26.3542926,0
            89.4692864,26.343217,0
            89.4802727,26.3235245,0
            89.6450677,26.3044442,0
            89.7714104,26.314908,0
            89.7844567,26.2176199,0
            89.7865166,26.1467577,0
            89.849688,26.1042198,0
            89.9650445,26.0767777,0
            89.9753441,26.0980536,0
            89.9980034,26.0962037,0
            90.0546517,26.1584684,0
            90.1171364,26.1972899,0
            90.197474,26.2388701,0
            90.2740349,26.2545743,0
            90.2769007,26.2535755,0
            90.2798189,26.2326359,0
            90.2921786,26.2233966,0
            90.2969851,26.205994,0
            90.3146662,26.2066101,0
            90.3318323,26.2226267,0
            90.3673662,26.2343297,0
            90.4346575,26.2645057,0
            90.4446139,26.2677383,0
            90.4502787,26.2937504,0
            90.4677882,26.3177564,0
            90.4796328,26.3269881,0
            90.4913058,26.3276036,0
            90.5081286,26.3360653,0
            90.5304446,26.3632925,0
            90.5548205,26.3785185,0
            90.5917277,26.3709827,0
            90.6193651,26.37452,0
            90.6334414,26.3743662,0
            90.6289782,26.3331422,0
            90.6217684,26.3011374,0
            90.5891527,26.2718945,0
            90.5666651,26.23125,0
            90.5652918,26.2258605,0
            90.5599703,26.2175447,0
            90.559627,26.1813488,0
            90.5428042,26.1677916,0
            90.5575671,26.1385152,0
            90.5790247,26.1163219,0
            90.5634035,26.0947409,0
            90.5613436,26.0837948,0
            90.5833163,26.0774733,0
            90.6310381,26.0512587,0
            90.6651987,26.0347559,0
            90.6688036,26.026118,0
            90.7077708,26.0094574,0
            90.7702555,25.984925,0
            90.785705,25.9827647,0
            90.8207239,25.9690302,0
            90.9331621,25.9673326,0
            90.9664645,25.9745859,0
            91.0177912,25.9654806,0
            91.122333,25.9454155,0
            91.1377825,25.9389322,0
            91.1487688,25.9452612,0
            91.1834444,25.9472678,0
            91.2294497,25.9739686,0
            91.3410296,26.0327508,0
            91.3966479,26.0517214,0
            91.426002,26.0734644,0
            91.4606776,26.0750063,0
            91.5156092,26.1042987,0
            91.5411867,26.0913493,0
            91.5564646,26.0907326,0
            91.5748324,26.0804029,0
            91.5928568,26.0987491,0
            91.6139712,26.0999824,0
            91.6148295,26.126032,0
            91.6290774,26.13682,0
            91.6455569,26.1452957,0
            91.6630663,26.1588554,0
            91.6702761,26.160088,0
          </coordinates>
        </LineString>
      </Placemark>
      <Placemark>
        <name>NH - 715</name>
        <description>15 to 2  jhanjhi (teok) to Tezpur</description>
        <styleUrl>#line-E65100-2744</styleUrl>
        <LineString>
          <tessellate>1</tessellate>
          <coordinates>
            92.8308327,26.6471789,0
            92.8493721,26.6250831,0
            92.8685982,26.5612267,0
            92.8878243,26.5513995,0
            92.9118568,26.5495568,0
            92.9262764,26.5341999,0
            92.9729683,26.583949,0
            93.0581123,26.5649117,0
            93.1157906,26.5716672,0
            93.2771523,26.5771942,0
            93.435939,26.5919314,0
            93.4671814,26.608048,0
            93.4975655,26.6117315,0
            93.5670883,26.6396607,0
            93.6141235,26.6387401,0
            93.6587555,26.6303006,0
            93.6946327,26.6385866,0
            93.7269051,26.6307609,0
            93.7457878,26.6422691,0
            93.7679321,26.6392004,0
            93.803466,26.6488666,0
            93.8244087,26.6585321,0
            93.8868935,26.664515,0
            93.9207108,26.6775537,0
            93.9698059,26.7152808,0
            94.000705,26.7255539,0
            94.0233643,26.7223341,0
            94.0671379,26.725094,0
            94.0806992,26.7171209,0
            94.1043884,26.7129808,0
            94.1509087,26.7324533,0
            94.1754562,26.7505428,0
            94.1816361,26.7513093,0
            94.1921074,26.7715415,0
            94.2149384,26.780277,0
            94.2466957,26.7729209,0
            94.4137222,26.8271616,0
            94.4181854,26.8378841,0
            94.4817001,26.8384968,0
            94.4933731,26.8460019,0
          </coordinates>
        </LineString>
      </Placemark>
      <Placemark>
        <name>NH 29</name>
        <description>Doboka to Jessami, manipur/Nagaland/Maynamar border</description>
        <styleUrl>#line-000000-1200</styleUrl>
        <LineString>
          <tessellate>1</tessellate>
          <coordinates>
            92.8820744,26.1186722,0
            92.9514256,26.1938644,0
            92.9775181,26.2289786,0
            93.1395665,26.2024899,0
            93.1381932,26.0909251,0
            93.1924382,26.0835248,0
            93.2178441,26.0329434,0
            93.34968,25.9909813,0
            93.3881321,26.0236883,0
            93.4341374,25.9743157,0
            93.4925023,25.9576477,0
            93.5893193,25.9625866,0
            93.6181584,25.9273924,0
            93.6868229,25.9175115,0
            93.7266484,25.9570303,0
            93.7987462,25.9236872,0
            93.8131657,25.8551189,0
            93.802866,25.7685795,0
            93.9244023,25.776618,0
            93.988947,25.7364203,0
            94.0555516,25.6974464,0
            94.1269627,25.6844523,0
            94.2148533,25.6330807,0
            94.2443791,25.5686803,0
            94.3604222,25.5773516,0
            94.4345799,25.6002656,0
            94.496378,25.6206987,0
            94.5533696,25.6120306,0
          </coordinates>
        </LineString>
      </Placemark>
      <Placemark>
        <name>NH 215</name>
        <description>Moranhat-Changlang-Ledo</description>
        <styleUrl>#line-000000-1200</styleUrl>
        <LineString>
          <tessellate>1</tessellate>
          <coordinates>
            94.9138576,27.1848655,0
            94.9942179,27.2444409,0
            95.0436564,27.1699387,0
            95.1294871,27.1546657,0
            95.1782389,27.0825489,0
            95.199525,26.9828536,0
            95.3018351,26.8824575,0
            95.3567668,26.8812326,0
            95.3636332,26.9326667,0
            95.4384776,26.9846893,0
            95.4817363,26.9779583,0
            95.5085154,27.0048798,0
            95.5723735,27.034853,0
            95.6781169,27.1314467,0
            95.7557078,27.1497779,0
            95.7261821,27.1998677,0
            95.6987162,27.2700777,0
            95.6842123,27.2895401,0
          </coordinates>
        </LineString>
      </Placemark>
      <Placemark>
        <name>Sonapur (North bengal)</name>
        <styleUrl>#icon-1899-0288D1-nodesc</styleUrl>
        <Point>
          <coordinates>
            89.3662896,26.4932621,0
          </coordinates>
        </Point>
      </Placemark>
      <Placemark>
        <name>Porebandar</name>
        <styleUrl>#icon-1899-0288D1-nodesc</styleUrl>
        <Point>
          <coordinates>
            89.9006932,26.4356289,0
          </coordinates>
        </Point>
      </Placemark>
      <Placemark>
        <name>Rangia</name>
        <styleUrl>#icon-1899-0288D1-nodesc</styleUrl>
        <Point>
          <coordinates>
            91.7280615,26.3473409,0
          </coordinates>
        </Point>
      </Placemark>
      <Placemark>
        <name>Guwahati</name>
        <styleUrl>#icon-1899-0288D1-nodesc</styleUrl>
        <Point>
          <coordinates>
            91.6630663,26.1588554,0
          </coordinates>
        </Point>
      </Placemark>
      <Placemark>
        <name>Tezpur</name>
        <styleUrl>#icon-1899-0288D1-nodesc</styleUrl>
        <Point>
          <coordinates>
            92.8374746,26.6472173,0
          </coordinates>
        </Point>
      </Placemark>
      <Placemark>
        <name>Jhanji</name>
        <styleUrl>#icon-1899-0288D1-nodesc</styleUrl>
        <Point>
          <coordinates>
            94.4901973,26.8527113,0
          </coordinates>
        </Point>
      </Placemark>
      <Placemark>
        <name>Doboka</name>
        <styleUrl>#icon-1899-0288D1-nodesc</styleUrl>
        <Point>
          <coordinates>
            92.8860864,26.1119169,0
          </coordinates>
        </Point>
      </Placemark>
      <Placemark>
        <name>Silchar</name>
        <styleUrl>#icon-1899-0288D1-nodesc</styleUrl>
        <Point>
          <coordinates>
            92.833405,24.8387232,0
          </coordinates>
        </Point>
      </Placemark>
      <Placemark>
        <name>Kohima</name>
        <styleUrl>#icon-1899-0288D1-nodesc</styleUrl>
        <Point>
          <coordinates>
            94.0909285,25.7076816,0
          </coordinates>
        </Point>
      </Placemark>
      <Placemark>
        <name>Tuipung</name>
        <styleUrl>#icon-1899-0288D1-nodesc</styleUrl>
        <Point>
          <coordinates>
            93.0216752,22.3152111,0
          </coordinates>
        </Point>
      </Placemark>
      <Placemark>
        <name>Jessami</name>
        <styleUrl>#icon-1899-0288D1-nodesc</styleUrl>
        <Point>
          <coordinates>
            94.5533696,25.6120306,0
          </coordinates>
        </Point>
      </Placemark>
      <Placemark>
        <name>Dibrugarh</name>
        <styleUrl>#icon-1899-0288D1-nodesc</styleUrl>
        <Point>
          <coordinates>
            94.8631709,27.3903573,0
          </coordinates>
        </Point>
      </Placemark>
      <Placemark>
        <name>margherita</name>
        <styleUrl>#icon-1899-0288D1-nodesc</styleUrl>
        <Point>
          <coordinates>
            95.6842123,27.2895401,0
          </coordinates>
        </Point>
      </Placemark>
      <Placemark>
        <name>Wakro</name>
        <styleUrl>#icon-1899-0288D1-nodesc</styleUrl>
        <Point>
          <coordinates>
            96.3475912,27.7829898,0
          </coordinates>
        </Point>
      </Placemark>
      <Placemark>
        <name>Moranhat</name>
        <styleUrl>#icon-1899-0288D1-nodesc</styleUrl>
        <Point>
          <coordinates>
            94.9138576,27.1848655,0
          </coordinates>
        </Point>
      </Placemark>
      <Placemark>
        <name>Point 28</name>
        <styleUrl>#icon-1899-0288D1-nodesc</styleUrl>
        <Point>
          <coordinates>
            93.9416499,24.8163838,0
          </coordinates>
        </Point>
      </Placemark>
    </Folder>
  </Document>
</kml>
