<?xml version="1.0" encoding="UTF-8"?>
<kml xmlns="http://www.opengis.net/kml/2.2">
  <Document>
    <name>Railwa (NEF)</name>
    <description>North east frontier railway the ways</description>
    <Style id="line-000000-1200-nodesc-normal">
      <LineStyle>
        <color>ff000000</color>
        <width>1.2</width>
      </LineStyle>
      <BalloonStyle>
        <text><![CDATA[<h3>$[name]</h3>]]></text>
      </BalloonStyle>
    </Style>
    <Style id="line-000000-1200-nodesc-highlight">
      <LineStyle>
        <color>ff000000</color>
        <width>1.8</width>
      </LineStyle>
      <BalloonStyle>
        <text><![CDATA[<h3>$[name]</h3>]]></text>
      </BalloonStyle>
    </Style>
    <StyleMap id="line-000000-1200-nodesc">
      <Pair>
        <key>normal</key>
        <styleUrl>#line-000000-1200-nodesc-normal</styleUrl>
      </Pair>
      <Pair>
        <key>highlight</key>
        <styleUrl>#line-000000-1200-nodesc-highlight</styleUrl>
      </Pair>
    </StyleMap>
    <Style id="line-000000-1581-nodesc-normal">
      <LineStyle>
        <color>ff000000</color>
        <width>1.581</width>
      </LineStyle>
      <BalloonStyle>
        <text><![CDATA[<h3>$[name]</h3>]]></text>
      </BalloonStyle>
    </Style>
    <Style id="line-000000-1581-nodesc-highlight">
      <LineStyle>
        <color>ff000000</color>
        <width>2.3715</width>
      </LineStyle>
      <BalloonStyle>
        <text><![CDATA[<h3>$[name]</h3>]]></text>
      </BalloonStyle>
    </Style>
    <StyleMap id="line-000000-1581-nodesc">
      <Pair>
        <key>normal</key>
        <styleUrl>#line-000000-1581-nodesc-normal</styleUrl>
      </Pair>
      <Pair>
        <key>highlight</key>
        <styleUrl>#line-000000-1581-nodesc-highlight</styleUrl>
      </Pair>
    </StyleMap>
    <Style id="line-000000-2938-nodesc-normal">
      <LineStyle>
        <color>ff000000</color>
        <width>2.938</width>
      </LineStyle>
      <BalloonStyle>
        <text><![CDATA[<h3>$[name]</h3>]]></text>
      </BalloonStyle>
    </Style>
    <Style id="line-000000-2938-nodesc-highlight">
      <LineStyle>
        <color>ff000000</color>
        <width>4.407</width>
      </LineStyle>
      <BalloonStyle>
        <text><![CDATA[<h3>$[name]</h3>]]></text>
      </BalloonStyle>
    </Style>
    <StyleMap id="line-000000-2938-nodesc">
      <Pair>
        <key>normal</key>
        <styleUrl>#line-000000-2938-nodesc-normal</styleUrl>
      </Pair>
      <Pair>
        <key>highlight</key>
        <styleUrl>#line-000000-2938-nodesc-highlight</styleUrl>
      </Pair>
    </StyleMap>
    <Style id="line-000000-3519-nodesc-normal">
      <LineStyle>
        <color>ff000000</color>
        <width>3.519</width>
      </LineStyle>
      <BalloonStyle>
        <text><![CDATA[<h3>$[name]</h3>]]></text>
      </BalloonStyle>
    </Style>
    <Style id="line-000000-3519-nodesc-highlight">
      <LineStyle>
        <color>ff000000</color>
        <width>5.2785</width>
      </LineStyle>
      <BalloonStyle>
        <text><![CDATA[<h3>$[name]</h3>]]></text>
      </BalloonStyle>
    </Style>
    <StyleMap id="line-000000-3519-nodesc">
      <Pair>
        <key>normal</key>
        <styleUrl>#line-000000-3519-nodesc-normal</styleUrl>
      </Pair>
      <Pair>
        <key>highlight</key>
        <styleUrl>#line-000000-3519-nodesc-highlight</styleUrl>
      </Pair>
    </StyleMap>
    <Style id="line-000000-3906-nodesc-normal">
      <LineStyle>
        <color>ff000000</color>
        <width>3.906</width>
      </LineStyle>
      <BalloonStyle>
        <text><![CDATA[<h3>$[name]</h3>]]></text>
      </BalloonStyle>
    </Style>
    <Style id="line-000000-3906-nodesc-highlight">
      <LineStyle>
        <color>ff000000</color>
        <width>5.859</width>
      </LineStyle>
      <BalloonStyle>
        <text><![CDATA[<h3>$[name]</h3>]]></text>
      </BalloonStyle>
    </Style>
    <StyleMap id="line-000000-3906-nodesc">
      <Pair>
        <key>normal</key>
        <styleUrl>#line-000000-3906-nodesc-normal</styleUrl>
      </Pair>
      <Pair>
        <key>highlight</key>
        <styleUrl>#line-000000-3906-nodesc-highlight</styleUrl>
      </Pair>
    </StyleMap>
    <Style id="line-000000-7006-nodesc-normal">
      <LineStyle>
        <color>ff000000</color>
        <width>7.006</width>
      </LineStyle>
      <BalloonStyle>
        <text><![CDATA[<h3>$[name]</h3>]]></text>
      </BalloonStyle>
    </Style>
    <Style id="line-000000-7006-nodesc-highlight">
      <LineStyle>
        <color>ff000000</color>
        <width>10.509</width>
      </LineStyle>
      <BalloonStyle>
        <text><![CDATA[<h3>$[name]</h3>]]></text>
      </BalloonStyle>
    </Style>
    <StyleMap id="line-000000-7006-nodesc">
      <Pair>
        <key>normal</key>
        <styleUrl>#line-000000-7006-nodesc-normal</styleUrl>
      </Pair>
      <Pair>
        <key>highlight</key>
        <styleUrl>#line-000000-7006-nodesc-highlight</styleUrl>
      </Pair>
    </StyleMap>
    <Style id="line-0F9D58-3519-nodesc-normal">
      <LineStyle>
        <color>ff589d0f</color>
        <width>3.519</width>
      </LineStyle>
      <BalloonStyle>
        <text><![CDATA[<h3>$[name]</h3>]]></text>
      </BalloonStyle>
    </Style>
    <Style id="line-0F9D58-3519-nodesc-highlight">
      <LineStyle>
        <color>ff589d0f</color>
        <width>5.2785</width>
      </LineStyle>
      <BalloonStyle>
        <text><![CDATA[<h3>$[name]</h3>]]></text>
      </BalloonStyle>
    </Style>
    <StyleMap id="line-0F9D58-3519-nodesc">
      <Pair>
        <key>normal</key>
        <styleUrl>#line-0F9D58-3519-nodesc-normal</styleUrl>
      </Pair>
      <Pair>
        <key>highlight</key>
        <styleUrl>#line-0F9D58-3519-nodesc-highlight</styleUrl>
      </Pair>
    </StyleMap>
    <Style id="line-0F9D58-5263-nodesc-normal">
      <LineStyle>
        <color>ff589d0f</color>
        <width>5.263</width>
      </LineStyle>
      <BalloonStyle>
        <text><![CDATA[<h3>$[name]</h3>]]></text>
      </BalloonStyle>
    </Style>
    <Style id="line-0F9D58-5263-nodesc-highlight">
      <LineStyle>
        <color>ff589d0f</color>
        <width>7.8945</width>
      </LineStyle>
      <BalloonStyle>
        <text><![CDATA[<h3>$[name]</h3>]]></text>
      </BalloonStyle>
    </Style>
    <StyleMap id="line-0F9D58-5263-nodesc">
      <Pair>
        <key>normal</key>
        <styleUrl>#line-0F9D58-5263-nodesc-normal</styleUrl>
      </Pair>
      <Pair>
        <key>highlight</key>
        <styleUrl>#line-0F9D58-5263-nodesc-highlight</styleUrl>
      </Pair>
    </StyleMap>
    <Style id="line-558B2F-6231-nodesc-normal">
      <LineStyle>
        <color>ff2f8b55</color>
        <width>6.231</width>
      </LineStyle>
      <BalloonStyle>
        <text><![CDATA[<h3>$[name]</h3>]]></text>
      </BalloonStyle>
    </Style>
    <Style id="line-558B2F-6231-nodesc-highlight">
      <LineStyle>
        <color>ff2f8b55</color>
        <width>9.3465</width>
      </LineStyle>
      <BalloonStyle>
        <text><![CDATA[<h3>$[name]</h3>]]></text>
      </BalloonStyle>
    </Style>
    <StyleMap id="line-558B2F-6231-nodesc">
      <Pair>
        <key>normal</key>
        <styleUrl>#line-558B2F-6231-nodesc-normal</styleUrl>
      </Pair>
      <Pair>
        <key>highlight</key>
        <styleUrl>#line-558B2F-6231-nodesc-highlight</styleUrl>
      </Pair>
    </StyleMap>
    <Style id="line-7CB342-5263-nodesc-normal">
      <LineStyle>
        <color>ff42b37c</color>
        <width>5.263</width>
      </LineStyle>
      <BalloonStyle>
        <text><![CDATA[<h3>$[name]</h3>]]></text>
      </BalloonStyle>
    </Style>
    <Style id="line-7CB342-5263-nodesc-highlight">
      <LineStyle>
        <color>ff42b37c</color>
        <width>7.8945</width>
      </LineStyle>
      <BalloonStyle>
        <text><![CDATA[<h3>$[name]</h3>]]></text>
      </BalloonStyle>
    </Style>
    <StyleMap id="line-7CB342-5263-nodesc">
      <Pair>
        <key>normal</key>
        <styleUrl>#line-7CB342-5263-nodesc-normal</styleUrl>
      </Pair>
      <Pair>
        <key>highlight</key>
        <styleUrl>#line-7CB342-5263-nodesc-highlight</styleUrl>
      </Pair>
    </StyleMap>
    <Style id="line-880E4F-3131-nodesc-normal">
      <LineStyle>
        <color>ff4f0e88</color>
        <width>3.131</width>
      </LineStyle>
      <BalloonStyle>
        <text><![CDATA[<h3>$[name]</h3>]]></text>
      </BalloonStyle>
    </Style>
    <Style id="line-880E4F-3131-nodesc-highlight">
      <LineStyle>
        <color>ff4f0e88</color>
        <width>4.6965</width>
      </LineStyle>
      <BalloonStyle>
        <text><![CDATA[<h3>$[name]</h3>]]></text>
      </BalloonStyle>
    </Style>
    <StyleMap id="line-880E4F-3131-nodesc">
      <Pair>
        <key>normal</key>
        <styleUrl>#line-880E4F-3131-nodesc-normal</styleUrl>
      </Pair>
      <Pair>
        <key>highlight</key>
        <styleUrl>#line-880E4F-3131-nodesc-highlight</styleUrl>
      </Pair>
    </StyleMap>
    <Style id="line-880E4F-3906-nodesc-normal">
      <LineStyle>
        <color>ff4f0e88</color>
        <width>3.906</width>
      </LineStyle>
      <BalloonStyle>
        <text><![CDATA[<h3>$[name]</h3>]]></text>
      </BalloonStyle>
    </Style>
    <Style id="line-880E4F-3906-nodesc-highlight">
      <LineStyle>
        <color>ff4f0e88</color>
        <width>5.859</width>
      </LineStyle>
      <BalloonStyle>
        <text><![CDATA[<h3>$[name]</h3>]]></text>
      </BalloonStyle>
    </Style>
    <StyleMap id="line-880E4F-3906-nodesc">
      <Pair>
        <key>normal</key>
        <styleUrl>#line-880E4F-3906-nodesc-normal</styleUrl>
      </Pair>
      <Pair>
        <key>highlight</key>
        <styleUrl>#line-880E4F-3906-nodesc-highlight</styleUrl>
      </Pair>
    </StyleMap>
    <Style id="line-880E4F-5456-nodesc-normal">
      <LineStyle>
        <color>ff4f0e88</color>
        <width>5.456</width>
      </LineStyle>
      <BalloonStyle>
        <text><![CDATA[<h3>$[name]</h3>]]></text>
      </BalloonStyle>
    </Style>
    <Style id="line-880E4F-5456-nodesc-highlight">
      <LineStyle>
        <color>ff4f0e88</color>
        <width>8.184</width>
      </LineStyle>
      <BalloonStyle>
        <text><![CDATA[<h3>$[name]</h3>]]></text>
      </BalloonStyle>
    </Style>
    <StyleMap id="line-880E4F-5456-nodesc">
      <Pair>
        <key>normal</key>
        <styleUrl>#line-880E4F-5456-nodesc-normal</styleUrl>
      </Pair>
      <Pair>
        <key>highlight</key>
        <styleUrl>#line-880E4F-5456-nodesc-highlight</styleUrl>
      </Pair>
    </StyleMap>
    <Style id="line-9C27B0-2744-nodesc-normal">
      <LineStyle>
        <color>ffb0279c</color>
        <width>2.744</width>
      </LineStyle>
      <BalloonStyle>
        <text><![CDATA[<h3>$[name]</h3>]]></text>
      </BalloonStyle>
    </Style>
    <Style id="line-9C27B0-2744-nodesc-highlight">
      <LineStyle>
        <color>ffb0279c</color>
        <width>4.116</width>
      </LineStyle>
      <BalloonStyle>
        <text><![CDATA[<h3>$[name]</h3>]]></text>
      </BalloonStyle>
    </Style>
    <StyleMap id="line-9C27B0-2744-nodesc">
      <Pair>
        <key>normal</key>
        <styleUrl>#line-9C27B0-2744-nodesc-normal</styleUrl>
      </Pair>
      <Pair>
        <key>highlight</key>
        <styleUrl>#line-9C27B0-2744-nodesc-highlight</styleUrl>
      </Pair>
    </StyleMap>
    <Style id="line-9C27B0-5069-nodesc-normal">
      <LineStyle>
        <color>ffb0279c</color>
        <width>5.069</width>
      </LineStyle>
      <BalloonStyle>
        <text><![CDATA[<h3>$[name]</h3>]]></text>
      </BalloonStyle>
    </Style>
    <Style id="line-9C27B0-5069-nodesc-highlight">
      <LineStyle>
        <color>ffb0279c</color>
        <width>7.6035</width>
      </LineStyle>
      <BalloonStyle>
        <text><![CDATA[<h3>$[name]</h3>]]></text>
      </BalloonStyle>
    </Style>
    <StyleMap id="line-9C27B0-5069-nodesc">
      <Pair>
        <key>normal</key>
        <styleUrl>#line-9C27B0-5069-nodesc-normal</styleUrl>
      </Pair>
      <Pair>
        <key>highlight</key>
        <styleUrl>#line-9C27B0-5069-nodesc-highlight</styleUrl>
      </Pair>
    </StyleMap>
    <Style id="line-A52714-5263-nodesc-normal">
      <LineStyle>
        <color>ff1427a5</color>
        <width>5.263</width>
      </LineStyle>
      <BalloonStyle>
        <text><![CDATA[<h3>$[name]</h3>]]></text>
      </BalloonStyle>
    </Style>
    <Style id="line-A52714-5263-nodesc-highlight">
      <LineStyle>
        <color>ff1427a5</color>
        <width>7.8945</width>
      </LineStyle>
      <BalloonStyle>
        <text><![CDATA[<h3>$[name]</h3>]]></text>
      </BalloonStyle>
    </Style>
    <StyleMap id="line-A52714-5263-nodesc">
      <Pair>
        <key>normal</key>
        <styleUrl>#line-A52714-5263-nodesc-normal</styleUrl>
      </Pair>
      <Pair>
        <key>highlight</key>
        <styleUrl>#line-A52714-5263-nodesc-highlight</styleUrl>
      </Pair>
    </StyleMap>
    <Style id="line-C2185B-3131-nodesc-normal">
      <LineStyle>
        <color>ff5b18c2</color>
        <width>3.131</width>
      </LineStyle>
      <BalloonStyle>
        <text><![CDATA[<h3>$[name]</h3>]]></text>
      </BalloonStyle>
    </Style>
    <Style id="line-C2185B-3131-nodesc-highlight">
      <LineStyle>
        <color>ff5b18c2</color>
        <width>4.6965</width>
      </LineStyle>
      <BalloonStyle>
        <text><![CDATA[<h3>$[name]</h3>]]></text>
      </BalloonStyle>
    </Style>
    <StyleMap id="line-C2185B-3131-nodesc">
      <Pair>
        <key>normal</key>
        <styleUrl>#line-C2185B-3131-nodesc-normal</styleUrl>
      </Pair>
      <Pair>
        <key>highlight</key>
        <styleUrl>#line-C2185B-3131-nodesc-highlight</styleUrl>
      </Pair>
    </StyleMap>
    <Style id="line-C2185B-3325-nodesc-normal">
      <LineStyle>
        <color>ff5b18c2</color>
        <width>3.325</width>
      </LineStyle>
      <BalloonStyle>
        <text><![CDATA[<h3>$[name]</h3>]]></text>
      </BalloonStyle>
    </Style>
    <Style id="line-C2185B-3325-nodesc-highlight">
      <LineStyle>
        <color>ff5b18c2</color>
        <width>4.9875</width>
      </LineStyle>
      <BalloonStyle>
        <text><![CDATA[<h3>$[name]</h3>]]></text>
      </BalloonStyle>
    </Style>
    <StyleMap id="line-C2185B-3325-nodesc">
      <Pair>
        <key>normal</key>
        <styleUrl>#line-C2185B-3325-nodesc-normal</styleUrl>
      </Pair>
      <Pair>
        <key>highlight</key>
        <styleUrl>#line-C2185B-3325-nodesc-highlight</styleUrl>
      </Pair>
    </StyleMap>
    <Style id="line-C2185B-4488-nodesc-normal">
      <LineStyle>
        <color>ff5b18c2</color>
        <width>4.488</width>
      </LineStyle>
      <BalloonStyle>
        <text><![CDATA[<h3>$[name]</h3>]]></text>
      </BalloonStyle>
    </Style>
    <Style id="line-C2185B-4488-nodesc-highlight">
      <LineStyle>
        <color>ff5b18c2</color>
        <width>6.732</width>
      </LineStyle>
      <BalloonStyle>
        <text><![CDATA[<h3>$[name]</h3>]]></text>
      </BalloonStyle>
    </Style>
    <StyleMap id="line-C2185B-4488-nodesc">
      <Pair>
        <key>normal</key>
        <styleUrl>#line-C2185B-4488-nodesc-normal</styleUrl>
      </Pair>
      <Pair>
        <key>highlight</key>
        <styleUrl>#line-C2185B-4488-nodesc-highlight</styleUrl>
      </Pair>
    </StyleMap>
    <Style id="line-E65100-2356-nodesc-normal">
      <LineStyle>
        <color>ff0051e6</color>
        <width>2.356</width>
      </LineStyle>
      <BalloonStyle>
        <text><![CDATA[<h3>$[name]</h3>]]></text>
      </BalloonStyle>
    </Style>
    <Style id="line-E65100-2356-nodesc-highlight">
      <LineStyle>
        <color>ff0051e6</color>
        <width>3.534</width>
      </LineStyle>
      <BalloonStyle>
        <text><![CDATA[<h3>$[name]</h3>]]></text>
      </BalloonStyle>
    </Style>
    <StyleMap id="line-E65100-2356-nodesc">
      <Pair>
        <key>normal</key>
        <styleUrl>#line-E65100-2356-nodesc-normal</styleUrl>
      </Pair>
      <Pair>
        <key>highlight</key>
        <styleUrl>#line-E65100-2356-nodesc-highlight</styleUrl>
      </Pair>
    </StyleMap>
    <Style id="line-E65100-2744-nodesc-normal">
      <LineStyle>
        <color>ff0051e6</color>
        <width>2.744</width>
      </LineStyle>
      <BalloonStyle>
        <text><![CDATA[<h3>$[name]</h3>]]></text>
      </BalloonStyle>
    </Style>
    <Style id="line-E65100-2744-nodesc-highlight">
      <LineStyle>
        <color>ff0051e6</color>
        <width>4.116</width>
      </LineStyle>
      <BalloonStyle>
        <text><![CDATA[<h3>$[name]</h3>]]></text>
      </BalloonStyle>
    </Style>
    <StyleMap id="line-E65100-2744-nodesc">
      <Pair>
        <key>normal</key>
        <styleUrl>#line-E65100-2744-nodesc-normal</styleUrl>
      </Pair>
      <Pair>
        <key>highlight</key>
        <styleUrl>#line-E65100-2744-nodesc-highlight</styleUrl>
      </Pair>
    </StyleMap>
    <Style id="line-E65100-3519-nodesc-normal">
      <LineStyle>
        <color>ff0051e6</color>
        <width>3.519</width>
      </LineStyle>
      <BalloonStyle>
        <text><![CDATA[<h3>$[name]</h3>]]></text>
      </BalloonStyle>
    </Style>
    <Style id="line-E65100-3519-nodesc-highlight">
      <LineStyle>
        <color>ff0051e6</color>
        <width>5.2785</width>
      </LineStyle>
      <BalloonStyle>
        <text><![CDATA[<h3>$[name]</h3>]]></text>
      </BalloonStyle>
    </Style>
    <StyleMap id="line-E65100-3519-nodesc">
      <Pair>
        <key>normal</key>
        <styleUrl>#line-E65100-3519-nodesc-normal</styleUrl>
      </Pair>
      <Pair>
        <key>highlight</key>
        <styleUrl>#line-E65100-3519-nodesc-highlight</styleUrl>
      </Pair>
    </StyleMap>
    <Style id="line-E65100-4681-nodesc-normal">
      <LineStyle>
        <color>ff0051e6</color>
        <width>4.681</width>
      </LineStyle>
      <BalloonStyle>
        <text><![CDATA[<h3>$[name]</h3>]]></text>
      </BalloonStyle>
    </Style>
    <Style id="line-E65100-4681-nodesc-highlight">
      <LineStyle>
        <color>ff0051e6</color>
        <width>7.0215</width>
      </LineStyle>
      <BalloonStyle>
        <text><![CDATA[<h3>$[name]</h3>]]></text>
      </BalloonStyle>
    </Style>
    <StyleMap id="line-E65100-4681-nodesc">
      <Pair>
        <key>normal</key>
        <styleUrl>#line-E65100-4681-nodesc-normal</styleUrl>
      </Pair>
      <Pair>
        <key>highlight</key>
        <styleUrl>#line-E65100-4681-nodesc-highlight</styleUrl>
      </Pair>
    </StyleMap>
    <Style id="line-F57C00-3325-nodesc-normal">
      <LineStyle>
        <color>ff007cf5</color>
        <width>3.325</width>
      </LineStyle>
      <BalloonStyle>
        <text><![CDATA[<h3>$[name]</h3>]]></text>
      </BalloonStyle>
    </Style>
    <Style id="line-F57C00-3325-nodesc-highlight">
      <LineStyle>
        <color>ff007cf5</color>
        <width>4.9875</width>
      </LineStyle>
      <BalloonStyle>
        <text><![CDATA[<h3>$[name]</h3>]]></text>
      </BalloonStyle>
    </Style>
    <StyleMap id="line-F57C00-3325-nodesc">
      <Pair>
        <key>normal</key>
        <styleUrl>#line-F57C00-3325-nodesc-normal</styleUrl>
      </Pair>
      <Pair>
        <key>highlight</key>
        <styleUrl>#line-F57C00-3325-nodesc-highlight</styleUrl>
      </Pair>
    </StyleMap>
    <Style id="line-F57C00-3713-nodesc-normal">
      <LineStyle>
        <color>ff007cf5</color>
        <width>3.713</width>
      </LineStyle>
      <BalloonStyle>
        <text><![CDATA[<h3>$[name]</h3>]]></text>
      </BalloonStyle>
    </Style>
    <Style id="line-F57C00-3713-nodesc-highlight">
      <LineStyle>
        <color>ff007cf5</color>
        <width>5.5695</width>
      </LineStyle>
      <BalloonStyle>
        <text><![CDATA[<h3>$[name]</h3>]]></text>
      </BalloonStyle>
    </Style>
    <StyleMap id="line-F57C00-3713-nodesc">
      <Pair>
        <key>normal</key>
        <styleUrl>#line-F57C00-3713-nodesc-normal</styleUrl>
      </Pair>
      <Pair>
        <key>highlight</key>
        <styleUrl>#line-F57C00-3713-nodesc-highlight</styleUrl>
      </Pair>
    </StyleMap>
    <Style id="line-FFD600-2163-nodesc-normal">
      <LineStyle>
        <color>ff00d6ff</color>
        <width>2.163</width>
      </LineStyle>
      <BalloonStyle>
        <text><![CDATA[<h3>$[name]</h3>]]></text>
      </BalloonStyle>
    </Style>
    <Style id="line-FFD600-2163-nodesc-highlight">
      <LineStyle>
        <color>ff00d6ff</color>
        <width>3.2445</width>
      </LineStyle>
      <BalloonStyle>
        <text><![CDATA[<h3>$[name]</h3>]]></text>
      </BalloonStyle>
    </Style>
    <StyleMap id="line-FFD600-2163-nodesc">
      <Pair>
        <key>normal</key>
        <styleUrl>#line-FFD600-2163-nodesc-normal</styleUrl>
      </Pair>
      <Pair>
        <key>highlight</key>
        <styleUrl>#line-FFD600-2163-nodesc-highlight</styleUrl>
      </Pair>
    </StyleMap>
    <Style id="line-FFD600-2938-nodesc-normal">
      <LineStyle>
        <color>ff00d6ff</color>
        <width>2.938</width>
      </LineStyle>
      <BalloonStyle>
        <text><![CDATA[<h3>$[name]</h3>]]></text>
      </BalloonStyle>
    </Style>
    <Style id="line-FFD600-2938-nodesc-highlight">
      <LineStyle>
        <color>ff00d6ff</color>
        <width>4.407</width>
      </LineStyle>
      <BalloonStyle>
        <text><![CDATA[<h3>$[name]</h3>]]></text>
      </BalloonStyle>
    </Style>
    <StyleMap id="line-FFD600-2938-nodesc">
      <Pair>
        <key>normal</key>
        <styleUrl>#line-FFD600-2938-nodesc-normal</styleUrl>
      </Pair>
      <Pair>
        <key>highlight</key>
        <styleUrl>#line-FFD600-2938-nodesc-highlight</styleUrl>
      </Pair>
    </StyleMap>
    <Style id="line-FFD600-3131-nodesc-normal">
      <LineStyle>
        <color>ff00d6ff</color>
        <width>3.131</width>
      </LineStyle>
      <BalloonStyle>
        <text><![CDATA[<h3>$[name]</h3>]]></text>
      </BalloonStyle>
    </Style>
    <Style id="line-FFD600-3131-nodesc-highlight">
      <LineStyle>
        <color>ff00d6ff</color>
        <width>4.6965</width>
      </LineStyle>
      <BalloonStyle>
        <text><![CDATA[<h3>$[name]</h3>]]></text>
      </BalloonStyle>
    </Style>
    <StyleMap id="line-FFD600-3131-nodesc">
      <Pair>
        <key>normal</key>
        <styleUrl>#line-FFD600-3131-nodesc-normal</styleUrl>
      </Pair>
      <Pair>
        <key>highlight</key>
        <styleUrl>#line-FFD600-3131-nodesc-highlight</styleUrl>
      </Pair>
    </StyleMap>
    <Style id="line-FFD600-3325-nodesc-normal">
      <LineStyle>
        <color>ff00d6ff</color>
        <width>3.325</width>
      </LineStyle>
      <BalloonStyle>
        <text><![CDATA[<h3>$[name]</h3>]]></text>
      </BalloonStyle>
    </Style>
    <Style id="line-FFD600-3325-nodesc-highlight">
      <LineStyle>
        <color>ff00d6ff</color>
        <width>4.9875</width>
      </LineStyle>
      <BalloonStyle>
        <text><![CDATA[<h3>$[name]</h3>]]></text>
      </BalloonStyle>
    </Style>
    <StyleMap id="line-FFD600-3325-nodesc">
      <Pair>
        <key>normal</key>
        <styleUrl>#line-FFD600-3325-nodesc-normal</styleUrl>
      </Pair>
      <Pair>
        <key>highlight</key>
        <styleUrl>#line-FFD600-3325-nodesc-highlight</styleUrl>
      </Pair>
    </StyleMap>
    <Style id="line-FFFF8D-3906-nodesc-normal">
      <LineStyle>
        <color>ff8dffff</color>
        <width>3.906</width>
      </LineStyle>
      <BalloonStyle>
        <text><![CDATA[<h3>$[name]</h3>]]></text>
      </BalloonStyle>
    </Style>
    <Style id="line-FFFF8D-3906-nodesc-highlight">
      <LineStyle>
        <color>ff8dffff</color>
        <width>5.859</width>
      </LineStyle>
      <BalloonStyle>
        <text><![CDATA[<h3>$[name]</h3>]]></text>
      </BalloonStyle>
    </Style>
    <StyleMap id="line-FFFF8D-3906-nodesc">
      <Pair>
        <key>normal</key>
        <styleUrl>#line-FFFF8D-3906-nodesc-normal</styleUrl>
      </Pair>
      <Pair>
        <key>highlight</key>
        <styleUrl>#line-FFFF8D-3906-nodesc-highlight</styleUrl>
      </Pair>
    </StyleMap>
    <Folder>
      <name>Untitled layer</name>
      <Placemark>
        <name>Dhubri - Golakganj</name>
        <styleUrl>#line-E65100-2356-nodesc</styleUrl>
        <LineString>
          <tessellate>1</tessellate>
          <coordinates>
            89.9784189,26.0175957,0
            89.9787689,26.0184707,0
            89.9790708,26.0194014,0
            89.9790279,26.0202305,0
            89.9776546,26.0230313,0
            89.975643,26.0268588,0
            89.9727784,26.0319828,0
            89.9686478,26.0397527,0
            89.9635301,26.0490257,0
            89.9636374,26.0511077,0
            89.9642382,26.0544427,0
            89.9638734,26.0704609,0
            89.9627362,26.0732556,0
            89.960142,26.0754678,0
            89.9543914,26.077318,0
            89.9264964,26.0850271,0
            89.8928078,26.0940461,0
            89.8733523,26.0996414,0
            89.8525813,26.105268,0
            89.8457256,26.1070716,0
            89.836356,26.1095139,0
            89.835878,26.1095317,0
          </coordinates>
        </LineString>
      </Placemark>
      <Placemark>
        <name>Alipurduar, Fakirgram, Bangaigaon - Rangia</name>
        <styleUrl>#line-C2185B-4488-nodesc</styleUrl>
        <LineString>
          <tessellate>1</tessellate>
          <coordinates>
            89.5375937,26.5031051,0
            89.6085757,26.480751,0
            89.6904582,26.4886638,0
            89.7685641,26.4643859,0
            89.7788638,26.4546273,0
            89.8296756,26.4547041,0
            89.9050349,26.4274985,0
            90.0225371,26.431034,0
            90.0864381,26.4014396,0
            90.1431722,26.3746827,0
            90.1737708,26.3607252,0
            90.2317923,26.3881004,0
            90.3616971,26.44579,0
            90.3877896,26.4557799,0
            90.4978246,26.4699181,0
            90.6506173,26.5004989,0
            90.7209985,26.4966582,0
            90.7644288,26.4897447,0
            90.7781617,26.503725,0
            90.7828556,26.5045644,0
            90.8329807,26.4861286,0
            90.8916889,26.4950396,0
            90.9449898,26.5022601,0
            91.0236107,26.5008007,0
            91.0429002,26.5005807,0
            91.0646798,26.500139,0
            91.0778762,26.4995821,0
            91.0985185,26.4991597,0
            91.156171,26.4976989,0
            91.1815769,26.4970844,0
            91.3388488,26.4494948,0
            91.4448116,26.4505711,0
            91.6044567,26.449649,0
            91.6132445,26.443035,0
          </coordinates>
        </LineString>
      </Placemark>
      <Placemark>
        <name>Rangia - rangapara</name>
        <styleUrl>#line-FFD600-2938-nodesc</styleUrl>
        <LineString>
          <tessellate>1</tessellate>
          <coordinates>
            91.6140278,26.4439658,0
            91.6253164,26.4530565,0
            91.651838,26.4691158,0
            91.7169406,26.5233858,0
            91.7619588,26.561087,0
            91.8116548,26.6025748,0
            91.8472745,26.6318873,0
            91.8932798,26.6554393,0
            91.9149091,26.6588911,0
            91.9477822,26.6911032,0
            91.9796254,26.7220796,0
            92.0205667,26.7369514,0
            92.1173697,26.7462867,0
            92.1637868,26.7364006,0
            92.1855415,26.7290441,0
            92.2331321,26.7434153,0
            92.248015,26.7553199,0
            92.2837957,26.7796605,0
            92.2928701,26.7912034,0
            92.3310433,26.7985968,0
            92.3652039,26.8074451,0
            92.3897923,26.8147409,0
            92.3915626,26.8149037,0
            92.4071301,26.8138217,0
            92.4437463,26.8115719,0
            92.4756324,26.80349,0
            92.480396,26.8021302,0
            92.5210583,26.7996212,0
            92.5311434,26.8038347,0
            92.5767752,26.8105978,0
            92.6230594,26.8134704,0
            92.6673126,26.8194996,0
            92.6784921,26.8184655,0
            92.6824617,26.8215295,0
          </coordinates>
        </LineString>
      </Placemark>
      <Placemark>
        <name>Ranga-Para</name>
        <styleUrl>#line-0F9D58-3519-nodesc</styleUrl>
        <LineString>
          <tessellate>1</tessellate>
          <coordinates>
            92.6864319,26.8244062,0
            92.6889317,26.8258136,0
            92.6939636,26.8261487,0
            92.6986628,26.8243488,0
            92.7075785,26.8234296,0
            92.7325031,26.8242168,0
            92.7408287,26.8285204,0
            92.7579948,26.8213684,0
            92.763438,26.8193077,0
            92.8166101,26.817431,0
            92.8381107,26.8116476,0
            92.8839013,26.8136393,0
            92.936258,26.783569,0
            92.9523084,26.7734544,0
            92.9774568,26.7635305,0
            93.0089566,26.7565181,0
            93.0295989,26.746861,0
            93.0780503,26.7498885,0
            93.1262872,26.7569013,0
            93.1619928,26.7688949,0
            93.2381505,26.7946641,0
            93.2775468,26.8151184,0
            93.28808,26.8386232,0
            93.3112543,26.8501679,0
            93.3908837,26.8504167,0
            93.4266107,26.8679898,0
            93.4354402,26.8724564,0
            93.4758631,26.8735582,0
            93.5513689,26.8510078,0
            93.556905,26.8523096,0
            93.5968163,26.8799501,0
            93.6305856,26.9027585,0
            93.7829215,26.9314873,0
            93.8007742,26.9430033,0
            93.8186699,26.9796095,0
            93.8309008,26.997889,0
            93.8326174,27.0520218,0
            93.8441617,27.0743019,0
            93.8390977,27.0878666,0
            93.8351494,27.0917446,0
            93.8347632,27.0950494,0
            93.8459641,27.1138068,0
            93.8484532,27.1158313,0
            93.8608343,27.119145,0
          </coordinates>
        </LineString>
      </Placemark>
      <Placemark>
        <name>Harmoti-Naharlagun</name>
        <styleUrl>#line-000000-1200-nodesc</styleUrl>
        <LineString>
          <tessellate>1</tessellate>
          <coordinates>
            93.8723145,27.1218455,0
            93.8751469,27.124672,0
            93.8732586,27.1280331,0
            93.8562641,27.1278804,0
            93.8418446,27.1262762,0
            93.8315878,27.1298092,0
            93.8263092,27.1294272,0
            93.8177476,27.1320053,0
            93.8120613,27.1327309,0
            93.8015256,27.1358054,0
            93.7969122,27.135328,0
            93.7868271,27.1384024,0
            93.7843922,27.1385045,0
            93.7693879,27.1338427,0
            93.7679992,27.133807,0
            93.7578239,27.1352257,0
            93.7525453,27.1386629,0
            93.7498202,27.1432457,0
            93.7388767,27.143513,0
            93.7314095,27.141699,0
            93.7117972,27.1326859,0
            93.7061122,27.1271584,0
          </coordinates>
        </LineString>
      </Placemark>
      <Placemark>
        <name>Harmoti-Shripani</name>
        <styleUrl>#line-E65100-3519-nodesc</styleUrl>
        <LineString>
          <tessellate>1</tessellate>
          <coordinates>
            93.8747331,27.122772,0
            93.9217684,27.1351851,0
            93.9549419,27.1618016,0
            93.9926216,27.1953973,0
            94.0239498,27.1974966,0
            94.0783235,27.2251286,0
            94.0900394,27.2410788,0
            94.1178915,27.2590486,0
            94.118982,27.2612917,0
            94.1184456,27.2650969,0
            94.1148836,27.2675765,0
            94.0994663,27.2725259,0
            94.0878791,27.2726403,0
            94.0704984,27.2878971,0
            94.0780086,27.3038002,0
            94.0747041,27.3261063,0
            94.1017837,27.3412414,0
            94.1243572,27.3611008,0
            94.1283912,27.3723058,0
            94.1372747,27.376193,0
            94.1504497,27.3851102,0
            94.187829,27.4013422,0
            94.1892881,27.405114,0
            94.1864128,27.4228668,0
            94.1883439,27.426219,0
            94.2061538,27.4368842,0
            94.2074066,27.4392166,0
            94.2083186,27.4433824,0
            94.2089891,27.4446963,0
            94.2258227,27.4574019,0
            94.2273676,27.4580683,0
            94.2301571,27.4583729,0
            94.2892086,27.4401307,0
            94.3367588,27.4423017,0
            94.3498051,27.4344556,0
            94.3699753,27.4293516,0
            94.3740093,27.4266852,0
            94.3816161,27.4249758,0
            94.3850694,27.4251603,0
            94.3991886,27.4215415,0
            94.4763933,27.4260365,0
            94.5941053,27.5388433,0
            94.6005641,27.5450838,0
            94.6040617,27.5466439,0
            94.6229444,27.5485274,0
            94.6261631,27.5500113,0
            94.6279226,27.5515523,0
            94.6369134,27.5659527,0
            94.6399174,27.5687869,0
            94.6450673,27.5715069,0
            94.6518479,27.5728383,0
            94.6539507,27.5728383,0
            94.6567188,27.5718302,0
            94.6686669,27.5608805,0
          </coordinates>
        </LineString>
      </Placemark>
      <Placemark>
        <name>Shripani, Sisiborgaon- Murkongselek</name>
        <styleUrl>#line-C2185B-3131-nodesc</styleUrl>
        <LineString>
          <tessellate>1</tessellate>
          <coordinates>
            94.6754494,27.5615395,0
            94.7008543,27.5801032,0
            94.72928,27.601064,0
            94.7417683,27.6103337,0
            94.7463603,27.6139273,0
            94.7574324,27.62562,0
            94.7774879,27.6471451,0
            94.7847835,27.6796814,0
            94.7881309,27.6820376,0
            94.7997168,27.6821418,0
            94.8332766,27.6999259,0
            94.8441986,27.7045614,0
            94.8466779,27.7056413,0
            94.8480083,27.7064961,0
            94.8933483,27.7268404,0
            94.9103548,27.7459781,0
            94.9231221,27.753593,0
            94.9547292,27.7585871,0
            94.9608447,27.7592137,0
            95.004511,27.7662771,0
            95.0105836,27.7674922,0
            95.0171925,27.7716312,0
            95.0198104,27.771935,0
            95.0649788,27.7494723,0
            95.0696136,27.7489786,0
            95.123923,27.7644733,0
            95.1344158,27.7675112,0
            95.2123715,27.8178334,0
            95.2226784,27.8356147,0
          </coordinates>
        </LineString>
      </Placemark>
      <Placemark>
        <name>Balipara- Bhalukpong</name>
        <styleUrl>#line-9C27B0-5069-nodesc</styleUrl>
        <LineString>
          <tessellate>1</tessellate>
          <coordinates>
            92.7812889,26.8188646,0
            92.783499,26.8196114,0
            92.7885845,26.8255476,0
            92.7888205,26.826639,0
            92.7808597,26.8483703,0
            92.7816537,26.8504762,0
            92.7884343,26.8558173,0
            92.7951291,26.8707673,0
            92.8072449,26.9318855,0
            92.8044232,26.9433919,0
            92.8037151,26.9445491,0
            92.7944132,26.9514734,0
            92.7932008,26.9526879,0
            92.7885445,26.9589805,0
            92.7850147,26.9621745,0
            92.784092,26.9644217,0
            92.7828153,26.9653397,0
            92.7797468,26.9669366,0
            92.7762171,26.9691742,0
            92.7746399,26.9696619,0
            92.762806,26.970073,0
            92.7602096,26.9710579,0
            92.7585038,26.9722914,0
            92.7546521,26.9764507,0
            92.7534505,26.9772825,0
            92.7521201,26.9776267,0
            92.7099966,26.97867,0
            92.6762017,26.9824971,0
            92.6609238,26.9870481,0
            92.6594218,26.9876217,0
            92.6454743,26.9950786,0
            92.644852,27.0053264,0
            92.6448512,27.0064165,0
          </coordinates>
        </LineString>
      </Placemark>
      <Placemark>
        <name>Rangapara - Dekargaon (Tezpur)</name>
        <styleUrl>#line-000000-3519-nodesc</styleUrl>
        <LineString>
          <tessellate>1</tessellate>
          <coordinates>
            92.6817196,26.8204783,0
            92.6814219,26.8195041,0
            92.6814192,26.818865,0
            92.6813415,26.8182474,0
            92.6807031,26.8172372,0
            92.6803303,26.8165287,0
            92.6803195,26.8159398,0
            92.6818645,26.8135077,0
            92.6836259,26.8115578,0
            92.6971121,26.8035046,0
            92.6979704,26.8030162,0
            92.7026482,26.7910933,0
            92.7039356,26.7877987,0
            92.7080233,26.7814487,0
            92.7166064,26.7763531,0
            92.7193422,26.7743991,0
            92.7197499,26.7737094,0
            92.7209194,26.7683165,0
            92.7208335,26.766621,0
            92.7257366,26.7526632,0
            92.7268095,26.7182356,0
            92.7261658,26.7160314,0
            92.7275391,26.7136547,0
            92.746851,26.6986457,0
            92.7539385,26.6931307,0
            92.7659333,26.6763933,0
          </coordinates>
        </LineString>
      </Placemark>
      <Placemark>
        <name>Fakirgram- Buirhat</name>
        <styleUrl>#line-000000-1581-nodesc</styleUrl>
        <LineString>
          <tessellate>1</tessellate>
          <coordinates>
            90.1801545,26.3614207,0
            90.1305444,26.3471923,0
            90.0949246,26.3246541,0
            90.0473744,26.2943399,0
            90.042884,26.2916616,0
            90.0271019,26.2852841,0
            90.015783,26.2807147,0
            90.008541,26.2777518,0
            90.0021788,26.2752505,0
            89.9957415,26.2727204,0
            89.9854955,26.2686027,0
            89.9726423,26.2634554,0
            89.9644562,26.2600783,0
            89.9452302,26.2428063,0
            89.9303064,26.2288714,0
            89.9173674,26.2154738,0
            89.9055748,26.202439,0
            89.9031715,26.1978567,0
            89.8961334,26.1631569,0
            89.8934726,26.1591124,0
            89.8738174,26.1415846,0
            89.8393564,26.1107217,0
            89.828413,26.1072534,0
            89.8080496,26.1097968,0
            89.8032431,26.1124365,0
            89.8006038,26.1160587,0
            89.7920637,26.1468432,0
            89.7884588,26.1603643,0
            89.7843604,26.1751933,0
            89.780734,26.1882296,0
            89.7792534,26.1935439,0
            89.7782878,26.1972791,0
            89.7786526,26.2013031,0
            89.7859697,26.223153,0
            89.7864632,26.2259441,0
            89.7857551,26.2293126,0
            89.7759384,26.2439108,0
            89.7728807,26.2484191,0
            89.7719741,26.2506178,0
            89.7615603,26.296394,0
            89.7605088,26.3009531,0
            89.758921,26.3038,0
            89.7537303,26.3066516,0
            89.7370404,26.3069147,0
            89.7370838,26.3071968,0
          </coordinates>
        </LineString>
      </Placemark>
      <Placemark>
        <name>Dudhnoi - Mendipathar</name>
        <styleUrl>#line-000000-1200-nodesc</styleUrl>
        <LineString>
          <tessellate>1</tessellate>
          <coordinates>
            90.6301813,25.9116535,0
            90.6467896,25.9255104,0
            90.6729679,25.9345803,0
            90.6788044,25.9404077,0
            90.6976872,25.9490519,0
            90.7003587,25.9500842,0
            90.706517,25.951483,0
            90.7116132,25.9527564,0
            90.7186728,25.954271,0
            90.7325452,25.9594994,0
            90.7645278,25.9655957,0
            90.7674783,25.9674863,0
            90.7687228,25.969454,0
            90.7706218,25.978993,0
            90.7718985,25.9861203,0
            90.7721453,25.9879623,0
            90.7710295,25.9917812,0
            90.7618885,26.0014438,0
          </coordinates>
        </LineString>
      </Placemark>
      <Placemark>
        <name>bangagaon, Goalpara, Dudhnoi - Kamakhya</name>
        <styleUrl>#line-F57C00-3713-nodesc</styleUrl>
        <LineString>
          <tessellate>1</tessellate>
          <coordinates>
            90.5395995,26.4747394,0
            90.5407153,26.4734333,0
            90.5427323,26.4655963,0
            90.5482255,26.4511887,0
            90.5742751,26.431015,0
            90.5830727,26.4135667,0
            90.5875788,26.4057641,0
            90.61792,26.3703574,0
            90.634614,26.3632824,0
            90.6468449,26.3527845,0
            90.6485615,26.3491697,0
            90.6448279,26.3265549,0
            90.6252585,26.3008195,0
            90.6090365,26.2760019,0
            90.6049166,26.2735006,0
            90.5964194,26.2734237,0
            90.5938016,26.2715765,0
            90.575348,26.2399781,0
            90.5707989,26.2323948,0
            90.5611001,26.223733,0
            90.5596839,26.1962035,0
            90.5592547,26.1844581,0
            90.5463801,26.1716331,0
            90.5456505,26.1670497,0
            90.5476246,26.1628898,0
            90.5650483,26.1539917,0
            90.5850468,26.151796,0
            90.6231557,26.1256751,0
            90.6566725,26.1015138,0
            90.6617365,26.09924,0
            90.6703625,26.0974286,0
            90.6746111,26.0938444,0
            90.6842671,26.0654361,0
            90.6865845,26.0612725,0
            90.6928073,26.0547956,0
            90.7252942,26.0337047,0
            90.7489405,26.017855,0
            90.7531462,26.0108358,0
            90.7734373,25.9893066,0
            90.7781151,25.9871464,0
            90.797427,25.9886894,0
            90.8115462,25.9831729,0
            90.8481018,25.9815953,0
            90.9269802,25.9902365,0
            91.0418217,25.981441,0
            91.0763256,25.9795893,0
            91.113147,25.9800522,0
            91.1234467,25.9846816,0
            91.1561482,25.9854531,0
            91.1758892,25.9951741,0
            91.2099211,25.9996099,0
            91.2372582,26.0000728,0
            91.2603466,26.0062442,0
            91.2977688,26.0156549,0
            91.3057081,26.0178146,0
            91.3394825,26.0321218,0
            91.3566486,26.0439981,0
            91.3596527,26.0475454,0
            91.3777201,26.0607695,0
            91.3806812,26.0620802,0
            91.4028255,26.065704,0
            91.4263002,26.0741463,0
            91.4376299,26.0736066,0
            91.4620916,26.0790417,0
            91.4648811,26.0789261,0
            91.4762537,26.0760351,0
            91.5046637,26.0782708,0
            91.5087406,26.0776541,0
            91.5261213,26.0690964,0
            91.5812246,26.0709853,0
            91.5834562,26.0722189,0
            91.6219739,26.1064051,0
            91.6381101,26.1093338,0
            91.649783,26.1128791,0
            91.6586665,26.112725,0
            91.6663484,26.1107597,0
            91.6700391,26.1120313,0
            91.6751889,26.1172335,0
            91.675661,26.1201234,0
            91.6657905,26.1348419,0
            91.6659621,26.1381167,0
            91.674159,26.1435489,0
            91.6754035,26.1472087,0
            91.6780643,26.1543738,0
            91.6826991,26.1563769,0
            91.6910516,26.1569115,0
          </coordinates>
        </LineString>
      </Placemark>
      <Placemark>
        <name>KAmakhya, Guwahati - Chaparmukh (Roha)</name>
        <styleUrl>#line-C2185B-3325-nodesc</styleUrl>
        <LineString>
          <tessellate>1</tessellate>
          <coordinates>
            91.6928969,26.1569647,0
            91.6970811,26.1570995,0
            91.7034755,26.1562135,0
            91.7087112,26.1584092,0
            91.7179487,26.1654389,0
            91.7239247,26.1698683,0
            91.7256091,26.1707734,0
            91.7349647,26.1736139,0
            91.7371963,26.1745094,0
            91.7395563,26.1765216,0
            91.7429252,26.1813357,0
            91.7458649,26.1824333,0
            91.7748756,26.1832421,0
            91.8210096,26.1793523,0
            91.8247647,26.1795641,0
            91.835043,26.182337,0
            91.8381543,26.1835887,0
            91.8495698,26.1960465,0
            91.8516726,26.1998587,0
            91.8531103,26.2010909,0
            91.860642,26.2051724,0
            91.8645043,26.2051917,0
            91.8804045,26.2141436,0
            91.8843098,26.2152986,0
            91.8914337,26.2155874,0
            91.9197793,26.2322956,0
            91.922483,26.2337584,0
            91.9380398,26.2316604,0
            91.948318,26.2280225,0
            91.9509573,26.2267329,0
            91.9539828,26.2258667,0
            91.9613857,26.2202652,0
            91.9624157,26.2184749,0
            91.9634671,26.208888,0
            91.9732304,26.2018225,0
            91.9852681,26.197452,0
            91.9925208,26.1953148,0
            91.9940014,26.1937938,0
            91.9936581,26.1902702,0
            91.9874568,26.1812202,0
            91.9798393,26.176406,0
            91.9755478,26.167066,0
            91.9801397,26.1494624,0
            91.9828863,26.1456486,0
            92.0083995,26.1346302,0
            92.0116825,26.1327808,0
            92.0148582,26.1284078,0
            92.0271964,26.1244199,0
            92.040307,26.1245162,0
            92.0502849,26.1276179,0
            92.0650048,26.1302765,0
            92.0738239,26.1301223,0
            92.1078343,26.1219346,0
            92.1362891,26.1154808,0
            92.1895504,26.1247336,0
            92.2515202,26.1304361,0
            92.2968698,26.1695982,0
            92.3474241,26.1819228,0
            92.3839021,26.1949391,0
            92.4559999,26.2106493,0
            92.4921346,26.2014083,0
            92.5050951,26.2042577,0
            92.5226904,26.2005611,0
            92.5312734,26.2007537,0
            92.5402856,26.2046812,0
            92.5516153,26.1992904,0
            92.5617862,26.2004841,0
            92.5838447,26.1956323,0
            92.6015268,26.2023533,0
            92.605239,26.2018142,0
            92.6092838,26.198416,0
            92.6151114,26.186651,0
            92.6261836,26.1743463,0
            92.6381784,26.1679623,0
          </coordinates>
        </LineString>
      </Placemark>
      <Placemark>
        <name>Sensowa - Silghat</name>
        <styleUrl>#line-F57C00-3325-nodesc</styleUrl>
        <LineString>
          <tessellate>1</tessellate>
          <coordinates>
            92.9307863,26.6099428,0
            92.9304912,26.6087917,0
            92.9286593,26.6034485,0
            92.9291635,26.6014819,0
            92.9308372,26.5995921,0
            92.9377359,26.5975199,0
            92.9581421,26.5980667,0
            92.9723149,26.5968388,0
            92.978087,26.5902766,0
            92.9881721,26.5885881,0
            92.9903608,26.5864773,0
            92.9910475,26.5707799,0
            92.9913908,26.5532376,0
            92.9913479,26.5459052,0
            92.994309,26.5291654,0
            92.9888588,26.5002491,0
            92.9853397,26.4823504,0
            92.9789024,26.4652172,0
            92.9766708,26.4551512,0
            92.966457,26.4483889,0
            92.9538828,26.4501563,0
            92.9261166,26.4512706,0
            92.9095512,26.442971,0
            92.8922564,26.4340175,0
            92.8786522,26.428868,0
            92.8576559,26.4209127,0
            92.8273791,26.4027518,0
            92.8169185,26.386318,0
            92.7981215,26.3701702,0
            92.7464086,26.3380603,0
            92.7381903,26.338041,0
            92.7292853,26.3360411,0
            92.72744,26.3359642,0
            92.7093875,26.3443931,0
            92.7081669,26.3450282,0
            92.7053131,26.3482779,0
            92.7029313,26.349047,0
            92.6976312,26.3481433,0
            92.6950461,26.3474726,0
            92.6941986,26.3472659,0
            92.6930881,26.3466266,0
            92.6922513,26.3457997,0
            92.6872087,26.3393627,0
            92.6866234,26.3382704,0
            92.6863444,26.3359532,0
            92.6855934,26.334309,0
            92.6778311,26.3280732,0
            92.67414,26.3252898,0
            92.6721814,26.3242059,0
            92.6567318,26.3224365,0
            92.6510026,26.3185706,0
          </coordinates>
        </LineString>
      </Placemark>
      <Placemark>
        <name>Chapormukh (Roha) - Senchowa</name>
        <styleUrl>#line-FFD600-3131-nodesc</styleUrl>
        <LineString>
          <tessellate>1</tessellate>
          <coordinates>
            92.5173473,26.2022035,0
            92.5208664,26.2040132,0
            92.5212526,26.213485,0
            92.5187635,26.2218011,0
            92.5325823,26.2378926,0
            92.536273,26.2418958,0
            92.5485039,26.2485933,0
            92.5731802,26.2605631,0
            92.5949383,26.2710693,0
            92.6443046,26.3127461,0
            92.6537674,26.3209012,0
          </coordinates>
        </LineString>
      </Placemark>
      <Placemark>
        <name>Sensowa - Moirabari (Dhing)</name>
        <styleUrl>#line-000000-3519-nodesc</styleUrl>
        <LineString>
          <tessellate>1</tessellate>
          <coordinates>
            92.6542803,26.3213648,0
            92.6862308,26.3811446,0
            92.7167007,26.3934467,0
            92.7260991,26.4002123,0
            92.7421065,26.4067853,0
            92.7427717,26.408784,0
            92.7403899,26.4183929,0
            92.7385875,26.4200263,0
            92.7297469,26.4226013,0
            92.7192683,26.421652,0
            92.7093226,26.4206816,0
            92.7075792,26.4208161,0
            92.7019734,26.4231701,0
            92.6994146,26.4252502,0
            92.6893505,26.435011,0
            92.6877841,26.4357604,0
            92.6853594,26.4359333,0
            92.6833853,26.4359333,0
            92.6803168,26.4366058,0
            92.6239511,26.4435947,0
            92.6160225,26.4426148,0
            92.6045856,26.4513755,0
            92.5948009,26.4593479,0
            92.5769481,26.4674351,0
            92.54974,26.4697543,0
            92.5486028,26.469567,0
            92.5458777,26.467795,0
            92.544204,26.4675213,0
            92.537654,26.4674684,0
            92.5319141,26.4674012,0
            92.5258308,26.4666089,0
            92.5128167,26.4662487,0
            92.508611,26.4659798,0
            92.4889558,26.4569512,0
            92.4847066,26.4564225,0
            92.4756621,26.4557262,0
            92.4556372,26.4542376,0
            92.4457882,26.451183,0
            92.421251,26.4514087,0
            92.4212554,26.4514002,0
          </coordinates>
        </LineString>
      </Placemark>
      <Placemark>
        <name>Chapormukh (Roha) - Lumding</name>
        <styleUrl>#line-880E4F-3131-nodesc</styleUrl>
        <LineString>
          <tessellate>1</tessellate>
          <coordinates>
            92.5194997,26.2012364,0
            92.5312734,26.2007537,0
            92.5402856,26.2046812,0
            92.5516153,26.1992904,0
            92.5617862,26.2004841,0
            92.5838447,26.1956323,0
            92.6015268,26.2023533,0
            92.605239,26.2018142,0
            92.6092838,26.198416,0
            92.6151114,26.186651,0
            92.6261836,26.1743463,0
            92.6406497,26.1665761,0
            92.6524085,26.1606443,0
            92.6645107,26.1602591,0
            92.6770849,26.1628783,0
            92.7050227,26.1482019,0
            92.7440328,26.1060884,0
            92.7663059,26.0672365,0
            92.7826995,26.0569046,0
            92.7898664,26.0491166,0
            92.8192205,26.0267135,0
            92.8545827,25.9998704,0
            92.8997726,25.9649574,0
            92.941143,25.9333147,0
            92.9515285,25.9250553,0
            92.98423,25.8735175,0
            92.9992503,25.8498837,0
            93.0128974,25.8415412,0
            93.0275671,25.8153018,0
            93.0284683,25.8141428,0
            93.0343048,25.8102794,0
            93.0469219,25.7965249,0
            93.0517713,25.7914245,0
            93.0760185,25.7837348,0
            93.096017,25.7785179,0
            93.1027118,25.7781701,0
            93.1169597,25.7692429,0
            93.1352846,25.765494,0
            93.1424944,25.7662283,0
            93.1482879,25.7660351,0
            93.1585876,25.7618996,0
            93.1680719,25.7518889,0
            93.1775991,25.7501881,0
          </coordinates>
        </LineString>
      </Placemark>
      <Placemark>
        <name>Lumding - Furkating</name>
        <styleUrl>#line-FFD600-3325-nodesc</styleUrl>
        <LineString>
          <tessellate>1</tessellate>
          <coordinates>
            93.1784573,25.7501155,0
            93.1849804,25.748666,0
            93.1933489,25.7512944,0
            93.2074251,25.7540001,0
            93.2083413,25.7539014,0
            93.2099104,25.7533313,0
            93.2117156,25.7523867,0
            93.2135153,25.7522176,0
            93.2182304,25.7539598,0
            93.2215027,25.7538825,0
            93.2265989,25.7557281,0
            93.2297532,25.755989,0
            93.2370381,25.7558054,0
            93.2450311,25.7547328,0
            93.2506208,25.7555928,0
            93.2536141,25.7597092,0
            93.2581846,25.7617287,0
            93.2623367,25.7621925,0
            93.2671217,25.7607914,0
            93.2712309,25.7607817,0
            93.2745246,25.7596705,0
            93.2870345,25.7613132,0
            93.3002524,25.759342,0
            93.3077304,25.7580858,0
            93.3144574,25.7592937,0
            93.3175473,25.7578539,0
            93.3202509,25.754269,0
            93.325787,25.7523943,0
            93.3317308,25.7552063,0
            93.3372025,25.7581148,0
            93.3432106,25.7573418,0
            93.3529095,25.7554865,0
            93.3591751,25.7568007,0
            93.3628659,25.760975,0
            93.3728222,25.7618253,0
            93.3853535,25.7721057,0
            93.3900848,25.7745065,0
            93.3929412,25.7771742,0
            93.3973186,25.7871441,0
            93.4073607,25.7916265,0
            93.4123389,25.8046862,0
            93.4161155,25.8063089,0
            93.4217785,25.807062,0
            93.4238599,25.808704,0
            93.425555,25.8117368,0
            93.4280227,25.813823,0
            93.4290956,25.8172613,0
            93.4302757,25.8184782,0
            93.4328936,25.8207574,0
            93.4333013,25.8235388,0
            93.4330867,25.8263201,0
            93.4351037,25.8325006,0
            93.438258,25.8372323,0
            93.4403394,25.8409209,0
            93.4426353,25.8418865,0
            93.4474419,25.8406313,0
            93.4510897,25.8358418,0
            93.4540508,25.8293331,0
            93.4565828,25.8280005,0
            93.4637282,25.8284447,0
            93.4680627,25.8331379,0
            93.4730623,25.8345092,0
            93.4766672,25.8337173,0
            93.4790276,25.832404,0
            93.4872673,25.8257214,0
            93.4888766,25.8251806,0
            93.4920524,25.825393,0
            93.4935115,25.8244659,0
            93.4978245,25.8186713,0
            93.5020087,25.8181305,0
            93.5055492,25.8196564,0
            93.5095618,25.8188838,0
            93.5359977,25.8231332,0
            93.5407827,25.8232877,0
            93.5479925,25.8191542,0
            93.5504816,25.8184589,0
            93.5604594,25.8179953,0
            93.5652659,25.8168557,0
            93.579428,25.8154842,0
            93.5852645,25.8146922,0
            93.5875175,25.8136878,0
            93.5896204,25.8122197,0
            93.5930965,25.8117948,0
            93.6180947,25.8108869,0
            93.6201332,25.8111573,0
            93.6236308,25.8130697,0
            93.6808155,25.8419638,0
            93.6827038,25.8432384,0
            93.6846564,25.845324,0
            93.6859439,25.8460385,0
            93.6906217,25.8472938,0
            93.708453,25.8553462,0
            93.7108133,25.8573351,0
            93.7139783,25.8643152,0
            93.7147723,25.8679451,0
            93.7149654,25.8738241,0
            93.7164996,25.8762857,0
            93.7223576,25.8778399,0
            93.7243209,25.8799635,0
            93.7248574,25.8927432,0
            93.7286232,25.9079245,0
            93.7356399,25.935435,0
            93.7364982,25.9367086,0
            93.7600587,25.9568137,0
            93.7614964,25.959399,0
            93.7625478,25.9819114,0
            93.7695215,26.0051813,0
            93.7716892,26.0116122,0
            93.7787762,26.0182693,0
            93.7816945,26.0204772,0
            93.7857124,26.0214462,0
            93.7951056,26.0235533,0
            93.7977449,26.0249801,0
            93.8129798,26.052685,0
            93.8282362,26.0807495,0
            93.8381926,26.1075933,0
            93.8393298,26.1089421,0
            93.8438755,26.1252108,0
            93.851214,26.1490204,0
            93.8513678,26.1570002,0
            93.8521939,26.1616322,0
            93.8637412,26.2003471,0
            93.8665846,26.2103856,0
            93.8855532,26.2477273,0
            93.9007452,26.2762836,0
            93.9060667,26.2932139,0
            93.9093349,26.3001115,0
            93.9307168,26.3707435,0
            93.9330128,26.373954,0
            93.9380124,26.3761648,0
            93.9558866,26.3826238,0
            93.9574745,26.3835465,0
            93.9618948,26.3896399,0
            93.9647916,26.3981356,0
            93.9836958,26.4247909,0
            93.9920428,26.4362237,0
            93.9934161,26.4386446,0
            93.9974287,26.4534188,0
            94.0022352,26.4646759,0
          </coordinates>
        </LineString>
      </Placemark>
      <Placemark>
        <name>Furkating - Morioni</name>
        <styleUrl>#line-7CB342-5263-nodesc</styleUrl>
        <LineString>
          <tessellate>1</tessellate>
          <coordinates>
            94.0032253,26.4674265,0
            94.0075169,26.4741878,0
            94.0431366,26.5195086,0
            94.046484,26.5226573,0
            94.061161,26.5331781,0
            94.0649805,26.5359042,0
            94.094635,26.5608962,0
            94.098712,26.5633913,0
            94.1385803,26.5755971,0
            94.1456184,26.5776697,0
            94.2073736,26.6051084,0
            94.2104206,26.6064514,0
            94.2166433,26.6072955,0
            94.2220078,26.6081013,0
            94.2607603,26.620264,0
            94.2686567,26.6230647,0
            94.2823038,26.6333461,0
            94.3131814,26.6560924,0
          </coordinates>
        </LineString>
      </Placemark>
      <Placemark>
        <name>Furkating-Jorhat-Morioni</name>
        <styleUrl>#line-A52714-5263-nodesc</styleUrl>
        <LineString>
          <tessellate>1</tessellate>
          <coordinates>
            94.0036347,26.468975,0
            94.003978,26.4707037,0
            94.0018751,26.4743532,0
            93.9999439,26.4762355,0
            93.9873268,26.4843022,0
            93.9741089,26.4983985,0
            93.963895,26.5023927,0
            93.9619639,26.504505,0
            93.9617922,26.5085374,0
            93.9616271,26.5114039,0
            93.9613804,26.5138544,0
            93.9610504,26.514884,0
            93.960404,26.5159281,0
            93.9592686,26.5170689,0
            93.9583245,26.5175681,0
            93.9553955,26.5184898,0
            93.938637,26.5233281,0
            93.9378646,26.5237697,0
            93.9359656,26.5255264,0
            93.9350643,26.5263135,0
            93.9227798,26.5322458,0
            93.9217499,26.5332345,0
            93.9148405,26.5403662,0
            93.9106884,26.5447333,0
            93.9076843,26.5478622,0
            93.9052811,26.5513173,0
            93.9041867,26.5526321,0
            93.9036503,26.5530352,0
            93.8974705,26.5558183,0
            93.895314,26.5567972,0
            93.8940802,26.5576417,0
            93.8915589,26.5603384,0
            93.8863232,26.5651174,0
            93.8731255,26.5776012,0
            93.8727435,26.57813,0
            93.8721964,26.5793678,0
            93.8705227,26.5849999,0
            93.8635615,26.6082256,0
            93.8619308,26.6109499,0
            93.8507942,26.6228629,0
            93.8500861,26.6248963,0
            93.8525538,26.6317633,0
            93.8533906,26.6347172,0
            93.8582615,26.638956,0
            93.8656429,26.641948,0
            93.8689045,26.6455154,0
            93.8700847,26.6459948,0
            93.8933019,26.6504442,0
            93.9062579,26.6546747,0
            93.9829905,26.6690184,0
            93.9874666,26.6697525,0
            94.0173572,26.6670105,0
            94.0198033,26.6670297,0
            94.0326136,26.6693115,0
            94.0348666,26.6695608,0
            94.0386861,26.6685637,0
            94.04787,26.6686212,0
            94.0506595,26.6696758,0
            94.0542858,26.6733957,0
            94.0560453,26.6738175,0
            94.0579551,26.6731847,0
            94.0667527,26.6701552,0
            94.0870088,26.665975,0
            94.1064494,26.6685061,0
            94.1082089,26.6685253,0
            94.1181224,26.6668954,0
            94.1204398,26.6673748,0
            94.1255682,26.6706345,0
            94.1275852,26.6735682,0
            94.1423481,26.6844203,0
            94.1549652,26.6911112,0
            94.1573685,26.6940635,0
            94.1657799,26.7071372,0
            94.1727322,26.7225859,0
            94.1746419,26.7251349,0
            94.1922801,26.7337399,0
            94.2062061,26.7459275,0
            94.2173856,26.7507371,0
            94.2193695,26.7514525,0
            94.220555,26.7513151,0
            94.2220946,26.7496769,0
            94.2231782,26.7480002,0
            94.2245193,26.742769,0
            94.2268962,26.7286471,0
            94.2303257,26.7213085,0
            94.2330508,26.7148685,0
            94.2331259,26.710206,0
            94.233142,26.7095256,0
            94.2336999,26.7085624,0
            94.2360281,26.7076231,0
            94.2558453,26.7010763,0
            94.2591578,26.6997593,0
            94.2711235,26.6937266,0
            94.2736502,26.6923991,0
            94.2768998,26.6879622,0
            94.3031147,26.6768232,0
            94.3050351,26.6754139,0
            94.3105497,26.6644747,0
            94.3134457,26.6601803,0
            94.314025,26.6577065,0
            94.3132847,26.6563546,0
          </coordinates>
        </LineString>
      </Placemark>
      <Placemark>
        <name>Morioni - Simaluguri Junction</name>
        <styleUrl>#line-000000-7006-nodesc</styleUrl>
        <LineString>
          <tessellate>1</tessellate>
          <coordinates>
            94.3148881,26.6568292,0
            94.3225056,26.6585359,0
            94.3569854,26.6794242,0
            94.3844941,26.7001293,0
            94.4126466,26.7223256,0
            94.4505408,26.751454,0
            94.483414,26.7843295,0
            94.4948724,26.795171,0
            94.4984773,26.7969714,0
            94.5193771,26.8057816,0
            94.527531,26.8177317,0
            94.5371869,26.8215616,0
            94.5988992,26.8426621,0
            94.6183828,26.8507029,0
            94.6637014,26.8723339,0
            94.6677783,26.874669,0
            94.6735719,26.8806023,0
            94.676576,26.8827076,0
            94.69327,26.8872625,0
            94.7002223,26.8890998,0
            94.728246,26.9067051,0
            94.7450689,26.9143205,0
            94.7596601,26.9186063,0
            94.7616925,26.9197507,0
          </coordinates>
        </LineString>
      </Placemark>
      <Placemark>
        <name>Simaluguri - Dhamalgaon</name>
        <styleUrl>#line-E65100-4681-nodesc</styleUrl>
        <LineString>
          <tessellate>1</tessellate>
          <coordinates>
            94.7639797,26.9233756,0
            94.7649239,26.9262836,0
            94.7645376,26.9327882,0
            94.759817,26.9361168,0
            94.7468994,26.9423147,0
            94.74205,26.9460256,0
            94.7178887,26.9547094,0
            94.7117947,26.9582669,0
            94.6838139,26.9759762,0
            94.6772908,26.9798007,0
            94.6612953,26.9829492,0
            94.6452557,26.9881025,0
            94.6434211,26.989938,0
            94.6433245,26.9923855,0
            94.6454596,26.9950718,0
            94.6496975,26.9999664,0
            94.6531092,27.0022606,0
            94.657272,27.0048703,0
            94.6582161,27.0058262,0
            94.6687089,27.0211004,0
            94.669299,27.0229068,0
            94.6709942,27.0342318,0
            94.6754359,27.04482,0
            94.68683,27.0571652,0
            94.6895551,27.0598787,0
            94.7055625,27.0625921,0
            94.7174286,27.064522,0
            94.7259473,27.0669678,0
            94.753971,27.0709994,0
            94.7729932,27.0831985,0
            94.7838723,27.0906395,0
            94.8051466,27.1052524,0
            94.8081077,27.1062456,0
            94.8436493,27.1110347,0
            94.8501453,27.1121815,0
            94.8611638,27.1206806,0
            94.8754116,27.1319003,0
            94.9321027,27.1974582,0
            94.932489,27.1996339,0
            94.9322959,27.2008172,0
            94.8949166,27.3033119,0
            94.8879643,27.3080404,0
            94.861271,27.3214623,0
            94.8529454,27.3292401,0
            94.8248788,27.366749,0
            94.8211325,27.3732781,0
            94.8233856,27.379528,0
            94.8369039,27.3869779,0
          </coordinates>
        </LineString>
      </Placemark>
      <Placemark>
        <name>Simaluguri - Tinsukia</name>
        <styleUrl>#line-880E4F-5456-nodesc</styleUrl>
        <LineString>
          <tessellate>1</tessellate>
          <coordinates>
            94.7644863,26.9235625,0
            94.7720823,26.9340271,0
            94.8061744,26.9810504,0
            94.8277501,26.9983737,0
            94.8355392,27.0044343,0
            94.8373416,27.0049314,0
            94.8478559,27.0051035,0
            94.8733262,27.0056197,0
            94.8928915,27.0061518,0
            94.8968612,27.0067253,0
            94.9167954,27.013034,0
            94.931466,27.0224468,0
            94.9357611,27.0252836,0
            94.9382716,27.026937,0
            94.9605977,27.0381112,0
            94.9758755,27.0533619,0
            95.0241922,27.0620355,0
            95.0767998,27.0712603,0
            95.291677,27.1706479,0
            95.3325791,27.218224,0
            95.3344674,27.260501,0
            95.3293175,27.2909396,0
            95.3290171,27.2929228,0
            95.3203482,27.3155743,0
            95.3068728,27.3294146,0
            95.3057141,27.331969,0
            95.3061862,27.3579667,0
            95.3071303,27.3891788,0
            95.3109927,27.3950087,0
            95.3492303,27.439237,0
            95.3506085,27.4442781,0
            95.3517779,27.468536,0
            95.3525075,27.4825665,0
            95.3538379,27.4852887,0
            95.3583011,27.4866212,0
            95.3607472,27.4879917,0
            95.3630173,27.4879545,0
            95.363028,27.4879414,0
          </coordinates>
        </LineString>
      </Placemark>
      <Placemark>
        <name>Dhamalgaon (Dibruagrh - Tinsukia)</name>
        <styleUrl>#line-FFFF8D-3906-nodesc</styleUrl>
        <LineString>
          <tessellate>1</tessellate>
          <coordinates>
            94.8655746,27.4034581,0
            94.8735568,27.4074204,0
            94.8897788,27.4321815,0
            94.9041126,27.4393422,0
            94.9126589,27.450007,0
            94.9238383,27.4550339,0
            94.9311339,27.4596608,0
            94.9393952,27.4670671,0
            94.9443519,27.4708463,0
            94.9470555,27.4713032,0
            94.9495017,27.4709605,0
            94.9539971,27.4690662,0
            94.9694204,27.4608127,0
            94.9748331,27.4584018,0
            94.9852938,27.4547384,0
            95.0005246,27.4527817,0
            95.0072371,27.4548314,0
            95.0152308,27.4563211,0
            95.0173417,27.4567804,0
            95.0226095,27.4574064,0
            95.0344263,27.458387,0
            95.0402842,27.4599102,0
            95.0473009,27.4592057,0
            95.0543864,27.4594044,0
            95.0595899,27.4587856,0
            95.0630928,27.4584714,0
            95.0663222,27.4585,0
            95.0954832,27.4702139,0
            95.1099094,27.4756917,0
            95.1142569,27.4768649,0
            95.1187362,27.476765,0
            95.1249321,27.476013,0
            95.1297815,27.4752087,0
            95.1307447,27.4747375,0
            95.1370378,27.473845,0
            95.1421018,27.4740068,0
            95.1479383,27.4747398,0
            95.1523103,27.4749587,0
            95.1581843,27.4745922,0
            95.1626797,27.4747588,0
            95.1688327,27.4778571,0
            95.1742346,27.4838584,0
            95.1761819,27.4855478,0
            95.1815892,27.4886744,0
            95.1860578,27.4908253,0
            95.1881231,27.4926384,0
            95.189986,27.4935915,0
            95.2141093,27.499446,0
            95.2199887,27.499446,0
            95.2278851,27.4969716,0
            95.2440213,27.4967813,0
            95.2501152,27.4960961,0
            95.2577113,27.4947637,0
            95.2721629,27.4921249,0
            95.2756509,27.4902946,0
            95.2775418,27.4888931,0
            95.2883939,27.4815052,0
            95.2895526,27.481153,0
            95.293757,27.4781948,0
            95.3101977,27.4773107,0
            95.3160235,27.476811,0
            95.3184374,27.4768586,0
            95.3229597,27.4779437,0
            95.3265431,27.478629,0
            95.3306683,27.4786909,0
            95.3333237,27.4791002,0
          </coordinates>
        </LineString>
      </Placemark>
      <Placemark>
        <name>Tinsukia - Ledo </name>
        <styleUrl>#line-0F9D58-5263-nodesc</styleUrl>
        <LineString>
          <tessellate>1</tessellate>
          <coordinates>
            95.3624193,27.488025,0
            95.375015,27.4863213,0
            95.3779547,27.4862833,0
            95.3852932,27.4834565,0
            95.4019015,27.4835516,0
            95.4114501,27.4851031,0
            95.4380254,27.4870161,0
            95.442832,27.4857979,0
            95.4854353,27.4761023,0
            95.544916,27.4616329,0
            95.5867155,27.4515795,0
            95.5911388,27.4506572,0
            95.6035413,27.4435163,0
            95.6052794,27.4423738,0
            95.6074895,27.4391745,0
            95.6080474,27.4369844,0
            95.609013,27.4281857,0
            95.6103434,27.4151006,0
            95.6127038,27.4121672,0
            95.6133689,27.4067954,0
            95.6163945,27.4001661,0
            95.616771,27.3990461,0
            95.6165483,27.3950311,0
            95.6162265,27.3877485,0
            95.6170043,27.383976,0
            95.6184742,27.3785505,0
            95.6180718,27.3746634,0
            95.6183883,27.3729866,0
            95.6191394,27.3716289,0
            95.6200513,27.3708571,0
            95.6318369,27.369085,0
            95.6386229,27.3682751,0
            95.6399908,27.3678749,0
            95.6407258,27.3666029,0
            95.641568,27.366479,0
            95.640994,27.365531,0
            95.6436333,27.3610479,0
            95.6452909,27.3581988,0
            95.6462994,27.3563645,0
            95.6469002,27.3535343,0
            95.6477371,27.3487935,0
            95.6498661,27.3377348,0
            95.6526237,27.3230963,0
            95.6577306,27.2966614,0
            95.6586652,27.2911174,0
            95.6649738,27.2875848,0
            95.6673395,27.2864787,0
            95.6683265,27.2862499,0
            95.6701558,27.286822,0
            95.6715613,27.288481,0
            95.6797887,27.2934355,0
            95.6911612,27.2957237,0
            95.6932856,27.2956665,0
            95.7032848,27.2881152,0
            95.7139707,27.2827755,0
            95.7162882,27.2830807,0
            95.7239915,27.2878863,0
            95.7302786,27.2907277,0
            95.7360936,27.2913379,0
            95.7440121,27.2905971,0
            95.7473384,27.2916383,0
            95.74922,27.2927133,0
            95.749971,27.2930506,0
            95.7504632,27.2930828,0
            95.7514422,27.2928754,0
            95.7521709,27.2926271,0
            95.7550087,27.2926128,0
            95.7568648,27.2925126,0
            95.759606,27.2921646,0
            95.760607,27.292411,0
            95.7626186,27.2935301,0
            95.7641837,27.29458,0
            95.7679979,27.296137,0
            95.773137,27.2980152,0
            95.7784532,27.3000364,0
            95.779121,27.3001723,0
            95.7441795,27.2906242,0
          </coordinates>
        </LineString>
      </Placemark>
      <Placemark>
        <name>Makum - Dangari</name>
        <styleUrl>#line-E65100-2744-nodesc</styleUrl>
        <LineString>
          <tessellate>1</tessellate>
          <coordinates>
            95.4385777,27.4870721,0
            95.4418339,27.4874814,0
            95.4436685,27.4888852,0
            95.4444732,27.4895134,0
            95.4483581,27.4922011,0
            95.4497341,27.4931433,0
            95.4543376,27.4956831,0
            95.4577601,27.4967204,0
            95.4601098,27.498481,0
            95.4624325,27.5003511,0
            95.4650718,27.5016405,0
            95.4680813,27.5028777,0
            95.4737783,27.5053757,0
            95.4749531,27.5061798,0
            95.4755281,27.5067723,0
            95.4943794,27.5333809,0
            95.4979105,27.5353724,0
            95.5070633,27.5390623,0
            95.5300443,27.5494587,0
            95.5377556,27.5531209,0
            95.538512,27.5535703,0
            95.5412394,27.5555318,0
            95.5426932,27.5572938,0
            95.5460051,27.5614179,0
            95.5479148,27.5633582,0
            95.5497924,27.5647754,0
            95.5548027,27.56974,0
            95.555977,27.5728417,0
            95.5560628,27.5741113,0
            95.5563981,27.5817121,0
            95.5564973,27.583312,0
            95.5564812,27.584534,0
            95.556834,27.5872142,0
            95.5578639,27.6235518,0
            95.5584218,27.625624,0
            95.5587222,27.6359848,0
            95.5591737,27.6385696,0
            95.5602297,27.6437326,0
            95.5616888,27.6464413,0
            95.5624613,27.6477718,0
            95.5624827,27.6528657,0
            95.563341,27.6548994,0
            95.5637595,27.6603636,0
            95.5636951,27.6631003,0
            95.5619546,27.696676,0
            95.562303,27.6977182,0
            95.5629789,27.6992428,0
            95.57195,27.7171295,0
            95.5734702,27.7201389,0
            95.5675419,27.7082851,0
          </coordinates>
        </LineString>
      </Placemark>
      <Placemark>
        <name>Rangia - Kamakhya</name>
        <styleUrl>#line-000000-2938-nodesc</styleUrl>
        <LineString>
          <tessellate>1</tessellate>
          <coordinates>
            91.6103438,26.4445318,0
            91.6134337,26.4383068,0
            91.6246561,26.3847463,0
            91.6301063,26.3780759,0
            91.6449765,26.3681946,0
            91.709092,26.3298532,0
            91.7110232,26.3203525,0
            91.6922263,26.2565963,0
            91.6878489,26.2382749,0
            91.6996936,26.2251863,0
            91.6985348,26.2177175,0
            91.6878489,26.2085156,0
            91.6860894,26.203202,0
            91.6854028,26.1948846,0
            91.6732363,26.1887039,0
            91.6716698,26.1839671,0
            91.6730217,26.1619943,0
            91.6777853,26.1562163,0
            91.6920546,26.157006,0
          </coordinates>
        </LineString>
      </Placemark>
      <Placemark>
        <name>Sisibor Gaon - Dhamalgaon (Dibrugarg)</name>
        <styleUrl>#line-000000-1200-nodesc</styleUrl>
        <LineString>
          <tessellate>1</tessellate>
          <coordinates>
            94.6833881,27.5485419,0
            94.6860488,27.5048523,0
            94.7061332,27.4633539,0
            94.7148886,27.4524432,0
            94.79722,27.3730284,0
            94.8098789,27.3721807,0
            94.8369039,27.3869779,0
          </coordinates>
        </LineString>
      </Placemark>
      <Placemark>
        <name>Lumding - Badarpur</name>
        <styleUrl>#line-880E4F-3906-nodesc</styleUrl>
        <LineString>
          <tessellate>1</tessellate>
          <coordinates>
            93.1331036,25.7632757,0
            93.1294987,25.7469355,0
            93.1302604,25.743901,0
            93.131226,25.7419682,0
            93.1312046,25.7390206,0
            93.1285975,25.7321878,0
            93.1293378,25.7288147,0
            93.1291232,25.7232571,0
            93.1266877,25.7159883,0
            93.1268333,25.7125837,0
            93.1233571,25.7082144,0
            93.1222628,25.7040382,0
            93.1191943,25.7012734,0
            93.1179712,25.6957822,0
            93.115053,25.6931138,0
            93.1104181,25.6876222,0
            93.1102894,25.6846249,0
            93.1096457,25.6823818,0
            93.1075857,25.6803126,0
            93.1068133,25.6741049,0
            93.104131,25.6683997,0
            93.1021784,25.6659434,0
            93.1017063,25.6644349,0
            93.1026505,25.6611662,0
            93.1024788,25.6594255,0
            93.0998395,25.6566016,0
            93.0984662,25.6527138,0
            93.1021355,25.644725,0
            93.1022428,25.6406627,0
            93.0990027,25.6376255,0
            93.0944751,25.6368517,0
            93.0931876,25.6306804,0
            93.0913637,25.627082,0
            93.0935739,25.6230771,0
            93.0943678,25.6219356,0
            93.094282,25.6174855,0
            93.0912779,25.611352,0
            93.0928658,25.6066887,0
            93.0931233,25.6047633,0
            93.0919538,25.6026831,0
            93.0874799,25.60069,0
            93.0864177,25.5993354,0
            93.0856989,25.5956489,0
            93.0861388,25.5938588,0
            93.0880271,25.5911205,0
            93.0884026,25.5888755,0
            93.0877159,25.5869886,0
            93.0874906,25.585121,0
            93.0877159,25.5827888,0
            93.0865787,25.580476,0
            93.0865679,25.5785164,0
            93.0861281,25.5762373,0
            93.0849211,25.5729711,0
            93.0851249,25.5712872,0
            93.0861924,25.56985,0
            93.0888559,25.5671062,0
            93.0896444,25.563593,0
            93.0928845,25.5605103,0
            93.0934371,25.5580906,0
            93.0928363,25.5541657,0
            93.093362,25.5520314,0
            93.0941988,25.5506569,0
            93.0955453,25.5473416,0
            93.0958725,25.5462526,0
            93.095674,25.543639,0
            93.0961139,25.5423999,0
            93.0967094,25.541093,0
            93.0962856,25.5387068,0
            93.0943437,25.53209,0
            93.0943533,25.5298825,0
            93.0928728,25.5265328,0
            93.0945035,25.5233572,0
            93.0967781,25.5216919,0
            93.0971428,25.5186711,0
            93.097057,25.5132877,0
            93.0957481,25.5096857,0
            93.0963704,25.5042825,0
            93.0998894,25.500351,0
            93.1043955,25.5003316,0
            93.1087514,25.4989759,0
            93.1119916,25.495819,0
            93.1189224,25.4939209,0
            93.1225702,25.4884589,0
            93.1218835,25.4841976,0
            93.1218621,25.477476,0
            93.1255528,25.461862,0
            93.1282136,25.4577935,0
            93.1282779,25.4564954,0
            93.1268832,25.4506636,0
            93.1255313,25.4486291,0
            93.124201,25.4451415,0
            93.1243083,25.4433007,0
            93.1253597,25.4409561,0
            93.1264111,25.4300852,0
            93.125939,25.4268489,0
            93.1240078,25.4237095,0
            93.1198236,25.4221978,0
            93.1181284,25.4194071,0
            93.1173919,25.4128183,0
            93.1111263,25.4070134,0
            93.132778,25.3086705,0
            93.1413073,25.2980432,0
            93.1463211,25.2903643,0
            93.1515568,25.2832557,0
            93.153488,25.2782499,0
            93.1608587,25.2723609,0
            93.1743985,25.2717109,0
            93.1779069,25.2671703,0
            93.1783575,25.2572055,0
            93.176673,25.2525673,0
            93.1724673,25.2449983,0
            93.168444,25.2354199,0
            93.1636804,25.23081,0
            93.1624788,25.2279857,0
            93.159908,25.2244952,0
            93.1550532,25.2242234,0
            93.1573653,25.2281299,0
            93.1635987,25.233497,0
            93.1637114,25.235865,0
            93.1584328,25.2353991,0
            93.1578159,25.2312599,0
            93.1575852,25.2297071,0
            93.1515127,25.2246844,0
            93.1514644,25.2214572,0
            93.1522422,25.2193559,0
            93.1514376,25.2174922,0
            93.1445753,25.2159591,0
            93.1420755,25.2129501,0
            93.1427407,25.2105622,0
            93.1447362,25.205864,0
            93.1427299,25.2018645,0
            93.1388568,25.1993211,0
            93.1360244,25.1953991,0
            93.1330633,25.1934671,0
            93.127892,25.1878556,0
            93.1150477,25.1800333,0
            93.1081303,25.182718,0
            93.1028946,25.1884462,0
            93.0851491,25.1884268,0
            93.0769094,25.182582,0
            93.0660947,25.1753776,0
            93.0480702,25.1656481,0
            93.0368693,25.1613949,0
            93.0318268,25.1479544,0
            93.0294664,25.1410004,0
            93.0285581,25.136325,0
            93.0077012,25.1213275,0
            92.9536279,25.114411,0
            92.9304107,25.1101754,0
            92.9073222,25.1063282,0
            92.8944905,25.1102142,0
            92.8127073,25.0856218,0
            92.7220701,24.9804793,0
            92.718132,24.9731097,0
            92.6879625,24.9625082,0
            92.6622991,24.9542598,0
            92.6524071,24.9523921,0
            92.627366,24.953929,0
            92.6050071,24.9439679,0
            92.5997714,24.9381699,0
            92.5972394,24.9329553,0
            92.5890211,24.926281,0
            92.5864677,24.9207935,0
            92.5840215,24.914683,0
            92.57767,24.9039986,0
            92.5765095,24.8895792,0
            92.5779686,24.8708138,0
            92.5668536,24.8677379,0
            92.5570689,24.8653238,0
          </coordinates>
        </LineString>
      </Placemark>
      <Placemark>
        <name>Badarpur-Silchar</name>
        <styleUrl>#line-FFD600-2938-nodesc</styleUrl>
        <LineString>
          <tessellate>1</tessellate>
          <coordinates>
            92.5784392,24.8698313,0
            92.5869365,24.8751264,0
            92.6054759,24.858851,0
            92.6289935,24.8336159,0
            92.6503653,24.8147641,0
            92.6699347,24.8253588,0
            92.7062411,24.8336938,0
            92.7186007,24.8502841,0
            92.7301237,24.845411,0
            92.7488991,24.8594298,0
            92.7599284,24.8540951,0
            92.7686831,24.8439117,0
            92.7782961,24.8307285,0
            92.7920934,24.830748,0
          </coordinates>
        </LineString>
      </Placemark>
      <Placemark>
        <name>Silchar - Jiribam</name>
        <styleUrl>#line-558B2F-6231-nodesc</styleUrl>
        <LineString>
          <tessellate>1</tessellate>
          <coordinates>
            92.7715805,24.8461558,0
            92.7801636,24.8637568,0
            92.8089597,24.8612648,0
            92.8461244,24.849427,0
            92.8988245,24.8289418,0
            92.9114416,24.8239952,0
            92.932513,24.8215024,0
            92.9581335,24.8206065,0
            92.9928091,24.8143742,0
            93.0192879,24.8179189,0
            93.0292013,24.8313566,0
            93.0368831,24.8338492,0
            93.0578687,24.8544504,0
            93.0738333,24.8546841,0
            93.0810001,24.8604082,0
            93.0847552,24.8557549,0
            93.0789187,24.8393017,0
            93.0761507,24.8290392,0
            93.0736187,24.8192822,0
            93.0785969,24.811628,0
            93.0863645,24.8097387,0
            93.0952695,24.8094465,0
            93.0994752,24.8036811,0
            93.1104186,24.803798,0
            93.1197956,24.800662,0
          </coordinates>
        </LineString>
      </Placemark>
      <Placemark>
        <name>Badarpur - Dullabcherra</name>
        <styleUrl>#line-000000-3906-nodesc</styleUrl>
        <LineString>
          <tessellate>1</tessellate>
          <coordinates>
            92.5551497,24.863182,0
            92.5247656,24.8532135,0
            92.4974332,24.8494757,0
            92.4769197,24.8551222,0
            92.4604831,24.8566409,0
            92.4485526,24.8557063,0
            92.4405275,24.8516565,0
            92.420486,24.8460877,0
            92.4068818,24.8427775,0
            92.4015174,24.8406356,0
            92.3875699,24.8462435,0
            92.3803172,24.8466329,0
            92.3731075,24.8280558,0
            92.3738799,24.8195257,0
            92.3745518,24.818533,0
            92.3765688,24.8122519,0
            92.3778992,24.7964454,0
            92.378661,24.7881859,0
            92.3760109,24.7727757,0
            92.375335,24.7691616,0
            92.3713439,24.7582016,0
            92.3691445,24.753223,0
            92.357611,24.746997,0
            92.3502617,24.7426415,0
            92.3476224,24.7347195,0
            92.3490065,24.7244776,0
            92.3471074,24.7158624,0
            92.3438566,24.703036,0
            92.3424297,24.6979188,0
            92.3417001,24.6878298,0
            92.34111,24.6787734,0
            92.3449939,24.6766481,0
            92.3656576,24.6763361,0
            92.3761933,24.670818,0
            92.3791116,24.6702526,0
            92.3841219,24.6674447,0
            92.4089963,24.6611727,0
            92.4124081,24.6615043,0
            92.413996,24.6587547,0
            92.4083311,24.6458444,0
            92.4040396,24.638277,0
            92.4002631,24.6221266,0
            92.3950703,24.603789,0
            92.4012072,24.5882194,0
            92.4030955,24.5790485,0
            92.4131806,24.5667545,0
            92.4203474,24.564959,0
            92.4285443,24.5514145,0
            92.4289305,24.5404451,0
            92.4245102,24.5220175,0
            92.4266989,24.5076093,0
            92.432235,24.4986667,0
            92.4331163,24.4865323,0
            92.433095,24.4865313,0
          </coordinates>
        </LineString>
      </Placemark>
      <Placemark>
        <name>katakhal-Aizawl</name>
        <styleUrl>#line-9C27B0-2744-nodesc</styleUrl>
        <LineString>
          <tessellate>1</tessellate>
          <coordinates>
            92.6289935,24.8336159,0
            92.810877,23.7538487,0
          </coordinates>
        </LineString>
      </Placemark>
      <Placemark>
        <name>Barigram - Agartala</name>
        <styleUrl>#line-FFD600-2163-nodesc</styleUrl>
        <LineString>
          <tessellate>1</tessellate>
          <coordinates>
            92.3353358,24.6837704,0
            91.2765284,23.8261165,0
          </coordinates>
        </LineString>
      </Placemark>
    </Folder>
  </Document>
</kml>
